{"type":"FeatureCollection","features":[{"type":"Feature","properties":{"no":"01","ad":"Meriç-Ergene Havzası"},"geometry":{"type":"Polygon","coordinates":[[[27.1564,42.0651],[27.1903,41.9952],[27.1804,41.9531],[27.2036,41.9276],[27.2844,41.9283],[27.3014,41.8869],[27.3872,41.9148],[27.509,41.8236],[27.7022,41.7492],[27.7686,41.6109],[27.8981,41.5582],[27.9779,41.5481],[27.9942,41.5191],[28.0974,41.4889],[28.1098,41.4727],[28.1026,41.402],[28.1386,41.3664],[28.1901,41.3656],[28.2059,41.3317],[28.1592,41.2637],[28.0475,41.2736],[27.9845,41.2275],[27.9334,41.2383],[27.8884,41.1511],[27.7612,41.1601],[27.6344,41.1037],[27.5179,41.0782],[27.5131,41.03],[27.4432,41.0134],[27.4273,40.9766],[27.3484,40.963],[27.3526,40.8846],[27.3227,40.8165],[27.1251,40.9032],[27.0011,40.8881],[26.9287,40.8612],[26.9088,40.7665],[26.8606,40.7254],[26.813,40.7247],[26.758,40.6905],[26.6875,40.6777],[26.6834,40.6959],[26.5919,40.6865],[26.5232,40.7118],[26.4068,40.6494],[26.314,40.6785],[26.2768,40.7095],[26.2719,40.7353],[26.2327,40.7396],[26.1966,40.7166],[26.1204,40.7452],[26.158,40.803],[26.2061,40.8346],[26.1979,40.8496],[26.2257,40.8661],[26.2173,40.8899],[26.2447,40.8852],[26.2616,40.9181],[26.2677,40.8941],[26.2977,40.8917],[26.2819,40.9318],[26.3629,40.9466],[26.3232,40.9784],[26.3612,41.0176],[26.3097,41.0767],[26.3311,41.1038],[26.3011,41.1102],[26.3446,41.1401],[26.3061,41.1712],[26.3311,41.2493],[26.4055,41.2478],[26.4382,41.2811],[26.4937,41.3043],[26.5252,41.3431],[26.5574,41.3432],[26.5854,41.3162],[26.6357,41.3475],[26.6175,41.4602],[26.5903,41.5248],[26.604,41.5455],[26.5996,41.6081],[26.5311,41.6256],[26.4965,41.6489],[26.4906,41.674],[26.3533,41.7136],[26.3354,41.7393],[26.3676,41.8117],[26.5403,41.8233],[26.5816,41.8768],[26.5861,41.9053],[26.5673,41.9295],[26.6231,41.9799],[26.7513,41.9621],[26.7927,41.9931],[26.8462,41.9732],[26.8782,41.9943],[26.9636,42.002],[27.025,42.0813],[27.1009,42.089],[27.1564,42.0651]]]}},{"type":"Feature","properties":{"no":"02","ad":"Marmara Havzası"},"geometry":{"type":"MultiPolygon","coordinates":[[[[27.8283,40.338],[27.8337,40.2969],[27.7893,40.2416],[27.7846,40.0892],[27.7328,39.996],[27.6747,40.0035],[27.5999,39.9623],[27.5245,39.9758],[27.4583,39.8538],[27.4671,39.8159],[27.4367,39.77],[27.3538,39.7245],[27.3448,39.6639],[27.2907,39.6463],[27.2395,39.6692],[27.2244,39.7008],[27.0717,39.6919],[27.0408,39.7199],[26.9937,39.7244],[26.9759,39.7668],[26.9975,39.8057],[26.9745,39.8185],[26.961,39.8569],[26.8771,39.8657],[26.8372,39.889],[26.8194,39.9332],[26.7867,39.9434],[26.7634,39.9717],[26.7558,40.0131],[26.7248,40.0178],[26.7006,39.9928],[26.6594,39.9885],[26.6439,39.9682],[26.5767,39.9454],[26.4124,40.034],[26.3081,39.9982],[26.249,40.001],[26.3223,40.0203],[26.3559,40.0603],[26.3659,40.1029],[26.4066,40.1184],[26.4037,40.1982],[26.4673,40.1984],[26.5205,40.2183],[26.5569,40.2656],[26.5788,40.2704],[26.5696,40.279],[26.6054,40.2836],[26.6896,40.3526],[26.6883,40.3666],[26.7383,40.3948],[26.7046,40.3881],[26.756,40.4049],[26.9113,40.4055],[26.9582,40.3839],[27.0319,40.3906],[27.0897,40.4417],[27.1543,40.4502],[27.2021,40.4339],[27.286,40.4749],[27.3313,40.4116],[27.306,40.4024],[27.3133,40.3804],[27.4701,40.3127],[27.5431,40.3011],[27.6267,40.3265],[27.6236,40.3167],[27.6744,40.3086],[27.7577,40.3068],[27.8283,40.338]]],[[[30.2807,41.1896],[30.2667,41.061],[30.2429,41.026],[30.2443,40.9476],[30.0759,40.8666],[30.2132,40.8186],[30.1663,40.7366],[30.0849,40.7271],[30.0642,40.6991],[30.0678,40.6741],[30.1176,40.6224],[30.1239,40.5649],[30.0319,40.5161],[30.0334,40.535],[30.0033,40.5576],[29.9536,40.5604],[29.851,40.4741],[29.8543,40.4563],[29.9589,40.4605],[29.9853,40.4393],[29.9693,40.4217],[29.8598,40.4018],[29.7795,40.363],[29.554,40.3561],[29.4281,40.3283],[29.4026,40.3367],[29.3613,40.2998],[29.3182,40.314],[29.2914,40.2995],[29.2818,40.3171],[29.2445,40.2995],[29.1981,40.3308],[29.1119,40.3292],[29.0821,40.3522],[29.0528,40.3298],[29.006,40.3408],[28.9702,40.3177],[28.9069,40.3181],[28.8316,40.3349],[28.7537,40.3883],[28.873,40.3824],[28.9328,40.3551],[29.0515,40.3617],[29.0898,40.416],[29.1528,40.423],[29.0825,40.4755],[29.028,40.4775],[28.9748,40.4567],[28.7839,40.5184],[28.8007,40.5536],[28.9291,40.5983],[28.9917,40.6433],[29.2735,40.6587],[29.3378,40.6714],[29.3852,40.7009],[29.4592,40.6951],[29.5149,40.739],[29.5591,40.6857],[29.8106,40.7298],[29.8665,40.728],[29.8889,40.7129],[29.9383,40.7237],[29.9369,40.7609],[29.7853,40.7402],[29.7364,40.7694],[29.6179,40.7827],[29.5738,40.7669],[29.4957,40.7796],[29.356,40.7548],[29.3346,40.8167],[29.2595,40.8031],[29.292,40.8518],[29.1437,40.9032],[29.1093,40.9437],[29.0226,40.9789],[29.0142,41.001],[29.0101,41.0231],[29.0491,41.0473],[29.0676,41.1014],[29.0946,41.1188],[29.0738,41.1412],[29.0743,41.1662],[29.1332,41.2092],[29.2573,41.2334],[29.5782,41.1708],[29.6199,41.1779],[29.8451,41.1378],[29.9745,41.1336],[30.1913,41.1471],[30.1932,41.1609],[30.2244,41.1621],[30.2255,41.1872],[30.2488,41.1865],[30.268,41.2083],[30.2807,41.1896]]],[[[28.0205,41.0373],[27.9895,41.017],[27.9578,40.9649],[27.8763,40.9662],[27.8407,40.991],[27.7527,41.01],[27.5161,40.9756],[27.4742,40.9134],[27.4586,40.847],[27.3467,40.7655],[27.3038,40.6959],[27.1776,40.6277],[27.0448,40.5989],[26.9927,40.5579],[26.8949,40.5368],[26.6979,40.4553],[26.6953,40.421],[26.6387,40.402],[26.6276,40.3596],[26.5899,40.3229],[26.5104,40.2894],[26.4244,40.2229],[26.3587,40.2056],[26.3766,40.1422],[26.2223,40.0512],[26.1672,40.0522],[26.2774,40.2197],[26.2805,40.2477],[26.2272,40.2886],[26.2476,40.3031],[26.2451,40.2887],[26.2623,40.2871],[26.269,40.301],[26.217,40.3199],[26.3089,40.3657],[26.3312,40.3632],[26.4436,40.4355],[26.5869,40.4978],[26.7026,40.5127],[26.7428,40.5582],[26.7623,40.5461],[26.796,40.5571],[26.832,40.5831],[26.8428,40.611],[26.8312,40.6055],[26.8141,40.647],[26.78,40.658],[26.6074,40.6366],[26.5331,40.5924],[26.4752,40.6127],[26.4936,40.6256],[26.4875,40.6387],[26.4721,40.6138],[26.4124,40.5996],[26.149,40.5884],[26.0966,40.6022],[26.0632,40.6314],[26.0521,40.7019],[26.0664,40.705],[26.0497,40.7125],[26.0769,40.7061],[26.0977,40.7178],[26.0361,40.726],[26.1204,40.7452],[26.1991,40.7166],[26.2327,40.7396],[26.2719,40.7353],[26.2768,40.7095],[26.314,40.6785],[26.4147,40.65],[26.5232,40.7118],[26.5919,40.6865],[26.6834,40.6959],[26.6875,40.6777],[26.758,40.6905],[26.813,40.7247],[26.8606,40.7254],[26.9088,40.7665],[26.9287,40.8612],[27.0011,40.8881],[27.1251,40.9032],[27.3227,40.8165],[27.3526,40.8846],[27.3484,40.963],[27.4273,40.9766],[27.4432,41.0134],[27.5131,41.03],[27.5179,41.0782],[27.6344,41.1037],[27.7612,41.1601],[27.8884,41.1511],[27.9334,41.2383],[27.9845,41.2275],[28.0475,41.2736],[28.1574,41.2621],[28.2061,41.3294],[28.1901,41.3656],[28.1386,41.3664],[28.1026,41.402],[28.1098,41.4727],[28.0974,41.4889],[27.9942,41.5191],[27.9779,41.5481],[27.8981,41.5582],[27.7686,41.6109],[27.7022,41.7492],[27.509,41.8236],[27.3872,41.9148],[27.3014,41.8869],[27.2844,41.9283],[27.2036,41.9276],[27.1804,41.9531],[27.1903,41.9952],[27.1564,42.0651],[27.2063,42.0597],[27.1972,42.0764],[27.2387,42.1043],[27.2941,42.0976],[27.3682,42.0559],[27.4004,42.0065],[27.4531,41.9683],[27.516,41.9587],[27.5363,41.9184],[27.5628,41.9032],[27.5797,41.9202],[27.5736,41.9385],[27.6725,41.9565],[27.6963,41.9813],[27.7384,41.9822],[27.8119,41.9404],[27.8392,41.9478],[27.8161,41.9908],[27.8557,42.0076],[27.9019,41.9939],[27.9103,41.9714],[28.0308,41.984],[28.0581,41.8826],[28.0019,41.8891],[27.9817,41.8674],[27.983,41.8281],[28.0446,41.7277],[28.0991,41.6767],[28.0872,41.6546],[28.0965,41.6356],[28.2186,41.5241],[28.626,41.3549],[28.9305,41.2612],[29.0152,41.2452],[29.0797,41.2513],[29.1172,41.2286],[29.1122,41.2079],[29.0435,41.1558],[29.0721,41.1215],[29.0315,41.0483],[28.9734,41.0211],[28.942,41.0481],[28.9511,41.0559],[28.951,41.0629],[28.9391,41.0505],[28.987,41.0015],[28.8545,40.9736],[28.8325,40.9551],[28.7735,40.9813],[28.6031,40.9649],[28.601,41.0139],[28.5752,41.0205],[28.5865,41.0454],[28.5544,41.079],[28.5326,41.0724],[28.5584,41.0553],[28.5675,41.0193],[28.5406,40.9855],[28.4148,41.0415],[28.2284,41.0771],[28.0205,41.0373]]]]}},{"type":"Feature","properties":{"no":"03","ad":"Susurluk Havzası"},"geometry":{"type":"Polygon","coordinates":[[[28.7537,40.3883],[28.8316,40.3349],[28.9069,40.3181],[28.9702,40.3177],[29.006,40.3408],[29.0528,40.3298],[29.0821,40.3522],[29.1119,40.3292],[29.1981,40.3308],[29.2445,40.2995],[29.2818,40.3171],[29.2914,40.2995],[29.3182,40.314],[29.3613,40.2998],[29.3286,40.2632],[29.3701,40.2178],[29.37,40.1718],[29.2686,40.0426],[29.3519,39.9582],[29.3724,39.9138],[29.4354,39.913],[29.5472,39.8615],[29.6187,39.8734],[29.662,39.8546],[29.7024,39.8648],[29.7929,39.8101],[29.7989,39.7958],[29.7783,39.7821],[29.7817,39.7229],[29.8026,39.7015],[29.8577,39.6952],[29.8396,39.6122],[29.698,39.5734],[29.6427,39.5738],[29.6781,39.5236],[29.6738,39.5074],[29.7203,39.4574],[29.7937,39.4338],[29.8147,39.4025],[29.7836,39.3718],[29.7537,39.3682],[29.7879,39.2924],[29.7426,39.2552],[29.7644,39.2221],[29.7709,39.1717],[29.7166,39.0876],[29.7395,39.0678],[29.7339,39.0352],[29.6851,39.0136],[29.6139,39.024],[29.4949,39.0703],[29.4336,39.1483],[29.3286,39.0628],[29.3234,39.0408],[29.1988,39.0519],[29.1792,39.0825],[29.0862,39.0634],[29.0861,39.0237],[29.0588,39.0051],[28.9503,39.0331],[28.9339,39.07],[28.8298,39.0499],[28.7861,39.0773],[28.6639,39.112],[28.5391,39.1101],[28.4625,39.1395],[28.3835,39.1082],[28.2877,39.1461],[28.2369,39.1167],[28.2742,39.101],[28.2879,39.0775],[28.2253,39.0457],[28.212,38.9935],[28.1479,39.0195],[28.1526,39.0987],[28.1112,39.1524],[28.1136,39.2046],[28.0083,39.226],[27.9543,39.1918],[27.9121,39.2327],[27.9186,39.275],[27.8779,39.2685],[27.79,39.2879],[27.8008,39.3066],[27.7632,39.3388],[27.7837,39.3631],[27.7379,39.3883],[27.7419,39.4398],[27.6978,39.4467],[27.6647,39.4757],[27.5494,39.4834],[27.5328,39.4195],[27.4529,39.4155],[27.4353,39.3976],[27.3751,39.3967],[27.347,39.38],[27.2974,39.3839],[27.2323,39.3458],[27.2156,39.3706],[27.1722,39.3758],[27.1844,39.4449],[27.2277,39.4942],[27.2837,39.5082],[27.3261,39.5713],[27.3631,39.5906],[27.3394,39.602],[27.3482,39.718],[27.4367,39.77],[27.4671,39.8159],[27.4583,39.8538],[27.518,39.9692],[27.5999,39.9623],[27.6747,40.0035],[27.7295,39.994],[27.7819,40.0827],[27.7893,40.2416],[27.8366,40.3078],[27.8222,40.3438],[27.8769,40.3762],[27.8198,40.3986],[27.7934,40.384],[27.7457,40.4291],[27.7513,40.4466],[27.6865,40.4737],[27.6832,40.501],[27.6996,40.5128],[27.7757,40.5246],[27.782,40.5067],[27.8602,40.5159],[28.0284,40.4814],[28.0122,40.447],[27.8955,40.3891],[27.9572,40.3496],[28.1779,40.3964],[28.5088,40.3949],[28.6581,40.3597],[28.7537,40.3883]]]}},{"type":"Feature","properties":{"no":"04","ad":"Kuzey Ege Havzası"},"geometry":{"type":"Polygon","coordinates":[[[27.3411,39.6618],[27.3402,39.5994],[27.3631,39.5906],[27.3261,39.5713],[27.2837,39.5082],[27.2277,39.4942],[27.1844,39.4449],[27.1722,39.3758],[27.2156,39.3706],[27.2323,39.3458],[27.2974,39.3839],[27.347,39.38],[27.3751,39.3967],[27.4353,39.3976],[27.4529,39.4155],[27.5328,39.4195],[27.5494,39.4834],[27.6647,39.4757],[27.6978,39.4467],[27.7419,39.4398],[27.7379,39.3883],[27.7837,39.3631],[27.7632,39.3388],[27.8008,39.3066],[27.7874,39.2898],[27.8255,39.2739],[27.9186,39.275],[27.9121,39.2327],[27.9543,39.1918],[27.9159,39.1524],[27.9205,39.0944],[27.8511,39.084],[27.8316,39.0484],[27.7779,39.0604],[27.723,39.0219],[27.6541,39.0648],[27.6368,39.1162],[27.6112,39.138],[27.6131,39.0987],[27.5315,39.026],[27.5294,38.969],[27.4272,38.9247],[27.4227,38.8661],[27.3432,38.8322],[27.2579,38.7422],[27.2141,38.7248],[27.1998,38.6953],[27.1291,38.6844],[27.1004,38.6961],[27.1073,38.7133],[27.0904,38.7273],[27.038,38.7319],[27.0081,38.7669],[26.9828,38.7282],[26.9135,38.6998],[26.8488,38.7206],[26.769,38.7047],[26.7255,38.7131],[26.7377,38.7406],[26.7777,38.7366],[26.8222,38.7616],[26.8323,38.7423],[26.8528,38.7519],[26.8932,38.7347],[26.9048,38.7651],[26.9358,38.764],[26.9335,38.7882],[26.9168,38.7844],[26.8892,38.8243],[26.9126,38.8163],[26.9402,38.8347],[26.9425,38.8063],[26.9727,38.805],[26.9836,38.8233],[26.9609,38.8299],[26.9679,38.845],[27.0252,38.8725],[27.0215,38.8511],[27.0359,38.8544],[27.0665,38.8766],[27.0383,38.8939],[27.0571,38.9179],[27.0451,38.939],[27.0082,38.9242],[27.0155,38.9127],[26.9567,38.9361],[26.9627,38.9369],[26.9673,38.948],[26.9352,38.9245],[26.9153,38.9378],[26.8538,38.9145],[26.8478,38.9328],[26.7986,38.9508],[26.7958,39.0057],[26.8129,39.0277],[26.7953,39.0174],[26.7954,39.034],[26.88,39.0678],[26.8719,39.099],[26.8122,39.1561],[26.7625,39.1665],[26.7268,39.2107],[26.7341,39.2288],[26.7179,39.2576],[26.6044,39.2747],[26.6236,39.3143],[26.6473,39.3248],[26.6514,39.3046],[26.6277,39.2981],[26.6678,39.2809],[26.6598,39.3045],[26.6984,39.3361],[26.6775,39.3471],[26.7114,39.3424],[26.778,39.3738],[26.8045,39.399],[26.7963,39.4364],[26.846,39.4372],[26.8535,39.4758],[26.925,39.4841],[26.9482,39.5512],[26.9377,39.5708],[26.8738,39.5849],[26.8313,39.5576],[26.7724,39.571],[26.63,39.5554],[26.4363,39.5176],[26.3698,39.4964],[26.3644,39.4803],[26.2842,39.4873],[26.2387,39.4654],[26.2227,39.4755],[26.1345,39.4535],[26.0605,39.4791],[26.101,39.5893],[26.1353,39.6103],[26.1583,39.6592],[26.1367,39.7578],[26.158,39.822],[26.1333,39.8415],[26.1548,39.8854],[26.1454,39.9128],[26.162,39.9627],[26.2023,40.0101],[26.3081,39.9982],[26.4124,40.034],[26.5767,39.9454],[26.6439,39.9682],[26.6594,39.9885],[26.7006,39.9928],[26.7248,40.0178],[26.7558,40.0131],[26.7634,39.9717],[26.7867,39.9434],[26.8194,39.9332],[26.8372,39.889],[26.8771,39.8657],[26.961,39.8569],[26.9745,39.8185],[26.9975,39.8057],[26.9759,39.7668],[26.9937,39.7244],[27.0408,39.7199],[27.0717,39.6919],[27.2244,39.7008],[27.2395,39.6692],[27.2857,39.6466],[27.3411,39.6618]]]}},{"type":"Feature","properties":{"no":"05","ad":"Gediz Havzası"},"geometry":{"type":"Polygon","coordinates":[[[29.7082,39.0215],[29.7339,39.0039],[29.7213,38.9724],[29.7623,38.9182],[29.6733,38.9162],[29.6653,38.8851],[29.604,38.857],[29.574,38.8062],[29.5174,38.8005],[29.5047,38.7718],[29.4147,38.7837],[29.3614,38.7588],[29.3837,38.6746],[29.363,38.6314],[29.3107,38.5939],[29.2467,38.5889],[29.179,38.5338],[29.1651,38.4845],[28.9868,38.4372],[28.9151,38.449],[28.8454,38.4115],[28.8578,38.3668],[28.8495,38.3337],[28.8985,38.2837],[28.8805,38.2548],[28.9672,38.2166],[28.9684,38.1751],[28.9223,38.1128],[28.8678,38.1069],[28.8495,38.0823],[28.7542,38.0501],[28.7388,38.0727],[28.654,38.0708],[28.6146,38.0941],[28.5793,38.0778],[28.5732,38.0538],[28.5502,38.0534],[28.3896,38.1117],[28.3759,38.1315],[28.4201,38.1819],[28.3974,38.2072],[28.3912,38.25],[28.3018,38.267],[28.2963,38.3002],[28.2579,38.3158],[28.2247,38.3068],[28.2154,38.3434],[28.181,38.3602],[28.1302,38.3192],[28.0931,38.3238],[28.0302,38.3035],[28.0139,38.3403],[27.9674,38.368],[27.9099,38.3313],[27.882,38.355],[27.8469,38.3374],[27.8038,38.3563],[27.7519,38.3295],[27.736,38.3609],[27.7107,38.3606],[27.6444,38.3416],[27.6372,38.2676],[27.6153,38.2645],[27.5774,38.3328],[27.5607,38.3355],[27.5271,38.2671],[27.5097,38.2649],[27.4968,38.2756],[27.5098,38.3189],[27.5006,38.3545],[27.3762,38.3628],[27.3439,38.3953],[27.3513,38.4253],[27.3379,38.4561],[27.2611,38.5001],[27.235,38.5467],[27.1984,38.5356],[27.1425,38.554],[27.0882,38.5169],[27.0666,38.4857],[27.0734,38.4595],[27.0094,38.466],[26.975,38.4511],[26.9731,38.4366],[26.9687,38.4512],[26.9499,38.4375],[26.8796,38.5075],[26.8393,38.5205],[26.8863,38.5136],[26.88,38.5347],[26.8272,38.5556],[26.8429,38.5597],[26.8298,38.5855],[26.8446,38.6034],[26.8289,38.6111],[26.7927,38.5928],[26.7956,38.6111],[26.7558,38.6155],[26.7648,38.64],[26.7194,38.6544],[26.751,38.6655],[26.7302,38.6751],[26.7282,38.7031],[26.8488,38.7206],[26.9135,38.6998],[26.9828,38.7282],[27.0081,38.7669],[27.038,38.7319],[27.1026,38.7189],[27.0989,38.6998],[27.1139,38.689],[27.1998,38.6953],[27.2141,38.7248],[27.2579,38.7422],[27.3432,38.8322],[27.4227,38.8661],[27.4272,38.9247],[27.5294,38.969],[27.5315,39.026],[27.6131,39.0987],[27.6112,39.138],[27.6368,39.1162],[27.6541,39.0648],[27.723,39.0219],[27.7779,39.0604],[27.8316,39.0484],[27.8511,39.084],[27.9205,39.0944],[27.9199,39.1624],[28.0083,39.226],[28.1136,39.2046],[28.1112,39.1524],[28.1526,39.0987],[28.1479,39.0195],[28.212,38.9935],[28.2253,39.0457],[28.2879,39.0775],[28.2742,39.101],[28.2369,39.1167],[28.2877,39.1461],[28.3835,39.1082],[28.4625,39.1395],[28.5391,39.1101],[28.6639,39.112],[28.7861,39.0773],[28.8298,39.0499],[28.9339,39.07],[28.9503,39.0331],[29.0588,39.0051],[29.0861,39.0237],[29.0862,39.0634],[29.1792,39.0825],[29.1988,39.0519],[29.3234,39.0408],[29.3286,39.0628],[29.4381,39.1479],[29.4517,39.1102],[29.4949,39.0703],[29.6515,39.0146],[29.7082,39.0215]]]}},{"type":"Feature","properties":{"no":"06","ad":"Küçük Menderes Havzası"},"geometry":{"type":"Polygon","coordinates":[[[27.072,38.4677],[27.0666,38.4857],[27.0894,38.5185],[27.1425,38.554],[27.1984,38.5356],[27.235,38.5467],[27.2611,38.5001],[27.3379,38.4561],[27.3513,38.4253],[27.3439,38.3953],[27.3762,38.3628],[27.5006,38.3545],[27.5098,38.3189],[27.4968,38.2756],[27.5148,38.2634],[27.5607,38.3355],[27.5774,38.3328],[27.6153,38.2645],[27.6372,38.2676],[27.6444,38.3416],[27.7107,38.3606],[27.736,38.3609],[27.7519,38.3295],[27.8038,38.3563],[27.8469,38.3374],[27.882,38.355],[27.9099,38.3313],[27.9674,38.368],[28.0139,38.3403],[28.0302,38.3035],[28.0931,38.3238],[28.1302,38.3192],[28.181,38.3602],[28.2154,38.3434],[28.2247,38.3068],[28.2579,38.3158],[28.2963,38.3002],[28.3018,38.267],[28.3879,38.2528],[28.4191,38.1755],[28.3759,38.1315],[28.3411,38.124],[28.308,38.0815],[28.3127,38.0591],[28.2741,38.0326],[28.1546,38.0591],[28.1342,38.0243],[28.0801,38.0254],[28.0199,38.0588],[27.9587,38.0387],[27.9397,38.015],[27.9005,38.0128],[27.7953,38.06],[27.6817,38.0441],[27.6128,38.0033],[27.5588,38.0086],[27.4027,37.8964],[27.3482,37.8879],[27.3412,37.8544],[27.3682,37.8468],[27.3879,37.8127],[27.3287,37.7761],[27.3488,37.7283],[27.3184,37.6897],[27.1667,37.6556],[27.055,37.6544],[27.0101,37.6646],[27.0152,37.6853],[27.1433,37.6925],[27.209,37.7114],[27.2526,37.748],[27.2683,37.8142],[27.2369,37.842],[27.241,37.8613],[27.2637,37.8693],[27.2628,37.9177],[27.2763,37.9289],[27.2523,37.9803],[27.2161,37.9941],[27.1435,37.9872],[26.9784,38.0762],[26.8975,38.0613],[26.8656,38.033],[26.8218,38.1578],[26.7922,38.1743],[26.7731,38.1629],[26.769,38.1909],[26.7869,38.1996],[26.7586,38.2229],[26.6851,38.2024],[26.6347,38.2067],[26.6228,38.1399],[26.6013,38.1471],[26.6129,38.1125],[26.5895,38.1041],[26.5683,38.1435],[26.5572,38.1187],[26.5294,38.1278],[26.5094,38.1648],[26.5156,38.1874],[26.5006,38.1775],[26.4873,38.1972],[26.4563,38.1935],[26.4407,38.2199],[26.4165,38.2259],[26.4256,38.2006],[26.3868,38.2233],[26.3983,38.2468],[26.3762,38.2732],[26.3835,38.247],[26.3336,38.2273],[26.2818,38.266],[26.2297,38.2686],[26.2332,38.2928],[26.2637,38.2875],[26.2791,38.3231],[26.3,38.3218],[26.281,38.3482],[26.2822,38.3769],[26.2986,38.355],[26.312,38.3766],[26.3165,38.3303],[26.3417,38.333],[26.3689,38.3084],[26.3802,38.3517],[26.3977,38.3242],[26.4779,38.3756],[26.4477,38.4278],[26.4893,38.4006],[26.5118,38.4295],[26.4271,38.4778],[26.3895,38.4463],[26.4069,38.4944],[26.3693,38.5324],[26.3785,38.5264],[26.3513,38.6397],[26.3593,38.6611],[26.4135,38.6797],[26.4739,38.6744],[26.5207,38.6484],[26.5222,38.629],[26.5602,38.6008],[26.569,38.56],[26.6229,38.5322],[26.6394,38.468],[26.5869,38.4699],[26.6018,38.4408],[26.5829,38.4265],[26.6111,38.422],[26.6425,38.3763],[26.6442,38.3408],[26.6738,38.3128],[26.7019,38.3191],[26.6735,38.3477],[26.6761,38.3597],[26.6866,38.351],[26.6773,38.3963],[26.7063,38.4334],[26.7357,38.4267],[26.7621,38.369],[26.7876,38.3781],[26.7804,38.3631],[26.8032,38.3562],[26.9864,38.3983],[27.0184,38.4188],[27.0908,38.3991],[27.1299,38.4167],[27.145,38.4428],[27.1724,38.4355],[27.1592,38.468],[27.1108,38.4505],[27.072,38.4677]]]}},{"type":"Feature","properties":{"no":"07","ad":"Büyük Menderes Havzası"},"geometry":{"type":"Polygon","coordinates":[[[29.6733,38.9162],[29.9221,38.9002],[29.9562,38.8555],[29.9425,38.8068],[29.9578,38.7413],[30.0582,38.7315],[30.109,38.6656],[30.1484,38.6546],[30.1534,38.6327],[30.2601,38.6798],[30.3209,38.6668],[30.3653,38.679],[30.4412,38.6473],[30.4029,38.6166],[30.387,38.5639],[30.3577,38.5349],[30.4179,38.3848],[30.5067,38.3752],[30.5455,38.3394],[30.5417,38.2586],[30.5835,38.2196],[30.5391,38.1936],[30.507,38.2038],[30.3993,38.1273],[30.3505,38.1249],[30.3213,38.0886],[30.3295,37.9997],[30.2915,37.9803],[30.2809,37.9363],[30.252,37.9026],[30.1977,37.88],[30.1648,37.8835],[30.1617,37.9331],[30.1076,37.9484],[30.1023,38.0163],[30.0666,38.0507],[30.0885,38.0979],[30.0072,38.0573],[29.9514,38.0594],[29.8767,38.1017],[29.8654,38.1414],[29.8155,38.1411],[29.77,38.0275],[29.7331,38.0097],[29.6809,38.0222],[29.6611,37.9787],[29.6336,37.9584],[29.6791,37.8817],[29.6178,37.8373],[29.6356,37.7289],[29.5745,37.734],[29.5503,37.6602],[29.6231,37.6228],[29.5987,37.6181],[29.59,37.5914],[29.5504,37.5677],[29.4784,37.6069],[29.3289,37.6303],[29.2912,37.6652],[29.2522,37.6537],[29.2199,37.5848],[29.236,37.5501],[29.1996,37.3826],[29.1796,37.3726],[29.1842,37.3234],[29.1296,37.2872],[29.1363,37.2679],[29.1089,37.2641],[28.9935,37.1631],[28.9659,37.1748],[28.886,37.1696],[28.8557,37.1404],[28.7538,37.1018],[28.7255,37.1191],[28.7248,37.1556],[28.6984,37.1803],[28.6951,37.2219],[28.6772,37.2427],[28.6471,37.2277],[28.6396,37.1986],[28.5802,37.212],[28.5584,37.1848],[28.5131,37.1769],[28.4603,37.202],[28.4357,37.2598],[28.4543,37.2891],[28.4177,37.3006],[28.3981,37.301],[28.3667,37.2471],[28.3182,37.2199],[28.3187,37.1948],[28.2916,37.1623],[28.2505,37.1506],[28.1988,37.1637],[28.2003,37.1932],[28.1617,37.2099],[28.087,37.1963],[28.0444,37.2103],[28.0269,37.2343],[27.9487,37.2331],[27.9227,37.2616],[27.9461,37.2923],[27.918,37.3733],[27.9358,37.4193],[27.9698,37.4352],[27.9266,37.4839],[27.8909,37.4822],[27.8177,37.4311],[27.763,37.4756],[27.6153,37.5017],[27.6038,37.4499],[27.5398,37.4049],[27.4262,37.4237],[27.3758,37.4046],[27.3572,37.3715],[27.327,37.3769],[27.3296,37.3425],[27.2835,37.3561],[27.2622,37.3367],[27.236,37.338],[27.2355,37.3529],[27.191,37.354],[27.212,37.377],[27.2084,37.3969],[27.2315,37.4053],[27.2186,37.4223],[27.2276,37.4874],[27.1721,37.4721],[27.1869,37.515],[27.1733,37.5592],[27.2187,37.5572],[27.2062,37.5712],[27.22,37.5869],[27.1267,37.6311],[27.0066,37.657],[27.1667,37.6556],[27.3184,37.6897],[27.3488,37.7283],[27.3287,37.7761],[27.3879,37.8127],[27.3682,37.8468],[27.3412,37.8544],[27.3499,37.8898],[27.4027,37.8964],[27.5317,37.9974],[27.6283,38.0079],[27.6817,38.0441],[27.7953,38.06],[27.9005,38.0128],[27.9397,38.015],[27.9587,38.0387],[28.0199,38.0588],[28.0801,38.0254],[28.1342,38.0243],[28.1546,38.0591],[28.2741,38.0326],[28.3127,38.0591],[28.308,38.0815],[28.3411,38.124],[28.3759,38.1315],[28.3896,38.1117],[28.5179,38.0589],[28.5732,38.0538],[28.5793,38.0778],[28.6146,38.0941],[28.654,38.0708],[28.7388,38.0727],[28.7542,38.0501],[28.8495,38.0823],[28.8678,38.1069],[28.9223,38.1128],[28.9669,38.1694],[28.9672,38.2166],[28.8805,38.2548],[28.8985,38.2837],[28.8495,38.3337],[28.8578,38.3668],[28.8454,38.4115],[28.9151,38.449],[28.9868,38.4372],[29.1651,38.4845],[29.179,38.5338],[29.2467,38.5889],[29.3107,38.5939],[29.363,38.6314],[29.3837,38.6746],[29.3614,38.7588],[29.4147,38.7837],[29.5047,38.7718],[29.5174,38.8005],[29.574,38.8062],[29.604,38.857],[29.6653,38.8851],[29.6733,38.9162]]]}},{"type":"Feature","properties":{"no":"08","ad":"Batı Akdeniz Havzası"},"geometry":{"type":"Polygon","coordinates":[[[29.5695,37.5712],[29.5724,37.5461],[29.6232,37.5109],[29.6382,37.4696],[29.6815,37.4398],[29.6751,37.418],[29.714,37.3523],[29.715,37.2944],[29.7333,37.2556],[29.8376,37.191],[29.8311,37.1325],[29.9237,37.1689],[29.9575,37.1617],[29.97,37.1409],[30.0183,37.1361],[30.0233,37.1046],[30.004,37.0797],[29.9971,37.0287],[30.0393,36.983],[30.0954,36.9868],[30.1649,36.9559],[30.1595,36.9251],[30.1915,36.8902],[30.2574,36.8597],[30.2849,36.8668],[30.3625,36.8109],[30.3679,36.7267],[30.386,36.6977],[30.4419,36.6673],[30.5041,36.6585],[30.5178,36.6269],[30.5596,36.633],[30.5663,36.6083],[30.594,36.5972],[30.5597,36.5435],[30.5666,36.5339],[30.5441,36.5246],[30.5059,36.4693],[30.5086,36.4419],[30.4804,36.4355],[30.4762,36.3983],[30.5293,36.3364],[30.4655,36.3148],[30.4862,36.3013],[30.4868,36.2801],[30.4074,36.2116],[30.411,36.2746],[30.369,36.271],[30.2648,36.3167],[30.168,36.3094],[30.1486,36.2981],[30.1513,36.2717],[30.1375,36.278],[30.1162,36.2483],[30.0551,36.2764],[30.037,36.2612],[30.0694,36.2595],[29.9825,36.2156],[29.9227,36.2331],[29.8844,36.1952],[29.8597,36.1983],[29.8317,36.1909],[29.8486,36.1928],[29.7809,36.1393],[29.7585,36.1457],[29.7874,36.1607],[29.7246,36.1648],[29.6829,36.1339],[29.6785,36.1557],[29.6577,36.1472],[29.6314,36.1706],[29.6524,36.1744],[29.6455,36.197],[29.5854,36.1884],[29.6322,36.2051],[29.4116,36.2268],[29.4162,36.2626],[29.3709,36.2641],[29.3751,36.2498],[29.3543,36.2324],[29.2338,36.3275],[29.1673,36.3437],[29.1668,36.3576],[29.1402,36.3629],[29.1474,36.3796],[29.1019,36.392],[29.1036,36.4069],[29.1329,36.4179],[29.1203,36.4266],[29.1346,36.4316],[29.1263,36.4648],[29.1037,36.4787],[29.1244,36.5002],[29.1224,36.5474],[29.107,36.5588],[29.1115,36.5472],[29.0972,36.5495],[29.0888,36.5677],[29.0499,36.5612],[29.0549,36.5407],[29.0137,36.5488],[29.0465,36.5625],[29.0238,36.5875],[29.0413,36.6215],[29.0759,36.6176],[29.0797,36.6482],[29.1015,36.6446],[29.089,36.624],[29.1207,36.6288],[29.1234,36.6506],[29.0947,36.6808],[29.0508,36.6883],[29.0352,36.7107],[29.0168,36.7077],[29.0211,36.7179],[28.9662,36.7254],[28.9314,36.7583],[28.9318,36.7371],[28.8934,36.7137],[28.9111,36.7084],[28.868,36.6999],[28.8708,36.6726],[28.8529,36.6654],[28.8684,36.6563],[28.8556,36.6429],[28.8846,36.6362],[28.8823,36.6505],[28.9047,36.652],[28.9089,36.6433],[28.871,36.6238],[28.877,36.6041],[28.8474,36.5929],[28.828,36.6293],[28.8549,36.6404],[28.8338,36.6404],[28.8226,36.6609],[28.7977,36.6529],[28.8093,36.6701],[28.7886,36.69],[28.7126,36.7067],[28.7162,36.7227],[28.6777,36.6944],[28.6506,36.7239],[28.6197,36.7041],[28.6248,36.73],[28.6075,36.7369],[28.6348,36.7577],[28.6136,36.76],[28.6308,36.7787],[28.6054,36.8013],[28.6438,36.7825],[28.662,36.7949],[28.6355,36.7953],[28.6325,36.8138],[28.596,36.8],[28.5559,36.8325],[28.5298,36.808],[28.5414,36.7873],[28.5168,36.8008],[28.5006,36.7908],[28.5002,36.8168],[28.4644,36.8106],[28.4527,36.8222],[28.4699,36.8627],[28.4523,36.8787],[28.4359,36.8583],[28.4105,36.8526],[28.4046,36.8656],[28.3819,36.8464],[28.3884,36.8337],[28.4277,36.8362],[28.4033,36.7849],[28.3149,36.8151],[28.304,36.8035],[28.3156,36.7932],[28.2754,36.7931],[28.2663,36.8135],[28.3182,36.8251],[28.2835,36.8509],[28.2598,36.8448],[28.2362,36.8019],[28.2571,36.7903],[28.2507,36.773],[28.2717,36.7467],[28.2935,36.7466],[28.3047,36.7279],[28.2907,36.7175],[28.2807,36.7333],[28.2546,36.7296],[28.2244,36.6867],[28.165,36.6808],[28.1057,36.5897],[28.0677,36.5917],[28.026,36.5593],[28.0144,36.5754],[28.0194,36.5631],[27.9785,36.5522],[27.966,36.5795],[27.9777,36.5852],[27.9591,36.5997],[27.9742,36.6102],[28.062,36.6032],[28.0941,36.6467],[28.0538,36.6533],[28.0739,36.6739],[28.0503,36.6718],[28.0436,36.6903],[28.0247,36.6662],[27.9662,36.6818],[28.0049,36.7037],[28.0423,36.7032],[28.0506,36.7189],[28.0964,36.7264],[28.0859,36.7144],[28.0984,36.7035],[28.13,36.7257],[28.0852,36.7451],[28.1135,36.7736],[28.1284,36.7518],[28.1331,36.7521],[28.1318,36.7949],[28.1173,36.8034],[28.0829,36.7954],[28.0533,36.7584],[28.0486,36.785],[28.0162,36.7579],[27.9533,36.7585],[27.9309,36.7408],[27.9196,36.7532],[27.8952,36.7547],[27.8966,36.7397],[27.8773,36.7559],[27.8614,36.7391],[27.8159,36.7607],[27.7244,36.7581],[27.6883,36.7268],[27.6951,36.7095],[27.6722,36.6813],[27.6795,36.6556],[27.5754,36.6829],[27.5624,36.6707],[27.5123,36.6739],[27.4801,36.6468],[27.4657,36.66],[27.4083,36.661],[27.4048,36.6776],[27.3614,36.6832],[27.3726,36.6872],[27.3625,36.7083],[27.4056,36.7019],[27.4246,36.7151],[27.4288,36.7471],[27.4664,36.7606],[27.4803,36.7482],[27.6073,36.7636],[27.6423,36.8098],[27.718,36.784],[27.771,36.7878],[27.8199,36.8123],[28.0361,36.7885],[28.0663,36.8201],[28.0587,36.8335],[28.0041,36.8337],[28.0248,36.8399],[28.0022,36.8518],[28.0186,36.8633],[28.0591,36.8667],[28.047,36.869],[28.0589,36.8802],[28.0403,36.8831],[28.0512,36.8954],[28.0142,36.9028],[28.0447,36.9081],[28.0222,36.9248],[28.0987,36.9395],[28.1618,36.9233],[28.1542,36.9201],[28.1668,36.9057],[28.1589,36.9447],[28.1893,36.9384],[28.2049,36.9509],[28.1992,36.9682],[28.2154,36.9755],[28.1975,36.9804],[28.2143,36.9978],[28.2537,36.9887],[28.2462,37.002],[28.2703,37.0162],[28.3291,37.0256],[28.3366,37.0526],[28.1024,37.0333],[28.1146,37.0146],[28.1006,37.0115],[28.0885,37.0269],[27.9776,37.0296],[27.95,37.0152],[27.8913,37.0261],[27.8,36.9938],[27.7892,37.0042],[27.7562,36.987],[27.688,37.0025],[27.648,36.9953],[27.6452,36.977],[27.5725,36.9908],[27.5659,36.9729],[27.5197,36.9917],[27.4852,36.9841],[27.4251,37.0363],[27.4099,37.0149],[27.3969,37.0287],[27.3749,36.9977],[27.3832,37.0245],[27.3287,37.0126],[27.3383,36.9961],[27.3006,36.9692],[27.3042,36.9563],[27.2866,36.9557],[27.254,36.9752],[27.2477,37.0323],[27.2251,37.0562],[27.2381,37.0814],[27.2949,37.1092],[27.2797,37.1198],[27.2548,37.1106],[27.2536,37.1291],[27.2626,37.119],[27.2741,37.1389],[27.313,37.1152],[27.3223,37.1584],[27.3423,37.1499],[27.3443,37.1301],[27.3648,37.1555],[27.3891,37.1448],[27.3767,37.1331],[27.3865,37.1187],[27.4309,37.1279],[27.4607,37.0806],[27.58,37.1355],[27.5514,37.1349],[27.5636,37.1524],[27.5431,37.1516],[27.5466,37.1829],[27.5266,37.193],[27.5574,37.1925],[27.5714,37.2105],[27.5923,37.1916],[27.5714,37.1797],[27.5886,37.1772],[27.596,37.1961],[27.6099,37.1898],[27.5761,37.2163],[27.6097,37.2558],[27.6474,37.2412],[27.6393,37.254],[27.6091,37.2585],[27.6113,37.2787],[27.5909,37.2862],[27.5798,37.2711],[27.5568,37.2758],[27.5403,37.2532],[27.5514,37.2439],[27.5359,37.2501],[27.5265,37.2267],[27.5038,37.2283],[27.5228,37.2494],[27.5187,37.275],[27.4539,37.254],[27.4878,37.2919],[27.4926,37.3313],[27.4745,37.3449],[27.4579,37.3093],[27.4146,37.3051],[27.3858,37.3272],[27.3827,37.3542],[27.4333,37.3843],[27.4201,37.4217],[27.5453,37.4079],[27.6038,37.4499],[27.6153,37.5017],[27.763,37.4756],[27.8177,37.4311],[27.8909,37.4822],[27.9337,37.4825],[27.9698,37.4352],[27.9358,37.4193],[27.918,37.3733],[27.9461,37.2923],[27.9227,37.2616],[27.9487,37.2331],[28.0269,37.2343],[28.0444,37.2103],[28.087,37.1963],[28.1617,37.2099],[28.2003,37.1932],[28.1988,37.1637],[28.2505,37.1506],[28.2916,37.1623],[28.3187,37.1948],[28.3182,37.2199],[28.3667,37.2471],[28.3981,37.301],[28.4236,37.3002],[28.4543,37.2891],[28.4357,37.2598],[28.4603,37.202],[28.5131,37.1769],[28.5584,37.1848],[28.5802,37.212],[28.6396,37.1986],[28.6471,37.2277],[28.6772,37.2427],[28.6951,37.2219],[28.6984,37.1803],[28.7248,37.1556],[28.7255,37.1191],[28.7538,37.1018],[28.8557,37.1404],[28.886,37.1696],[28.9659,37.1748],[28.9935,37.1631],[29.1089,37.2641],[29.1363,37.2679],[29.1313,37.289],[29.1691,37.3016],[29.1857,37.328],[29.1796,37.3726],[29.1996,37.3826],[29.226,37.4898],[29.236,37.5501],[29.2199,37.5848],[29.2522,37.6537],[29.2912,37.6652],[29.3619,37.6191],[29.4164,37.6236],[29.5695,37.5712]]]}},{"type":"Feature","properties":{"no":"09","ad":"Antalya Havzası"},"geometry":{"type":"Polygon","coordinates":[[[31.4087,38.1893],[31.3652,38.1553],[31.3041,38.1638],[31.2422,38.1478],[31.175,38.1135],[31.1243,38.0645],[31.1772,38.0462],[31.2089,38.0147],[31.1416,37.9989],[31.1391,37.967],[31.1642,37.924],[31.2693,37.8233],[31.2807,37.7836],[31.2582,37.76],[31.2915,37.727],[31.3041,37.6883],[31.28,37.6297],[31.3163,37.6052],[31.3429,37.5381],[31.3236,37.4106],[31.3648,37.3781],[31.3746,37.3485],[31.3999,37.3427],[31.3989,37.3129],[31.4289,37.2956],[31.4548,37.2478],[31.5358,37.2826],[31.5225,37.3298],[31.5731,37.3408],[31.5967,37.3213],[31.8431,37.3127],[31.842,37.2527],[31.8956,37.2264],[31.9106,37.1799],[31.9281,37.1765],[31.9788,37.0952],[32.0347,37.077],[32.0688,37.0441],[32.1171,37.0521],[32.1252,37.0201],[32.1842,36.9905],[32.1696,36.8996],[32.2544,36.8644],[32.2697,36.8389],[32.3224,36.8238],[32.3614,36.7862],[32.3592,36.7365],[32.2698,36.6799],[32.3131,36.617],[32.3419,36.6056],[32.3653,36.5563],[32.3967,36.5471],[32.3559,36.5268],[32.3769,36.4814],[32.2687,36.415],[32.2426,36.4231],[32.1789,36.4005],[32.0369,36.5337],[32.0092,36.543],[31.9901,36.5299],[31.9662,36.5566],[31.7728,36.6069],[31.7439,36.6387],[31.6736,36.646],[31.5557,36.7155],[31.383,36.7667],[31.3858,36.7803],[31.3548,36.8021],[30.9958,36.8605],[30.7569,36.8481],[30.7021,36.8858],[30.6719,36.8831],[30.5802,36.8032],[30.5596,36.633],[30.5178,36.6269],[30.5041,36.6585],[30.4419,36.6673],[30.3731,36.7121],[30.3655,36.8048],[30.3275,36.8416],[30.1915,36.8902],[30.1595,36.9251],[30.1649,36.9559],[30.0954,36.9868],[30.0422,36.9809],[29.9971,37.0287],[30.0256,37.1274],[29.9988,37.139],[29.9958,37.2208],[30.0753,37.28],[30.1222,37.2742],[30.1218,37.3207],[30.1943,37.3829],[30.2881,37.3966],[30.328,37.4539],[30.2847,37.5119],[30.2884,37.5275],[30.332,37.5601],[30.3973,37.5507],[30.4014,37.5765],[30.3851,37.5933],[30.4761,37.6158],[30.4496,37.6538],[30.4845,37.6911],[30.4572,37.771],[30.4609,37.8342],[30.5393,37.8692],[30.5934,37.8175],[30.6392,37.8312],[30.7144,37.8146],[30.7368,37.794],[30.7141,37.764],[30.7475,37.7513],[30.794,37.7581],[30.7956,37.7996],[30.8217,37.827],[30.8154,37.8731],[30.7476,37.9082],[30.6921,37.9813],[30.7132,38.0173],[30.7038,38.0491],[30.5601,38.0572],[30.5192,37.9992],[30.4809,38.0243],[30.4028,38.017],[30.3342,38.0425],[30.3213,38.0886],[30.3505,38.1249],[30.4069,38.1308],[30.507,38.2038],[30.5391,38.1936],[30.6042,38.2342],[30.7293,38.2713],[30.8151,38.3284],[30.7994,38.3402],[30.8083,38.3654],[30.8376,38.3579],[30.8769,38.3912],[30.9701,38.429],[30.9788,38.4517],[31.0341,38.4886],[31.0574,38.482],[31.0971,38.5004],[31.2124,38.4348],[31.2281,38.3826],[31.2957,38.327],[31.2978,38.295],[31.3229,38.2856],[31.3532,38.2294],[31.4087,38.1893]]]}},{"type":"Feature","properties":{"no":"10","ad":"Burdur Havzası"},"geometry":{"type":"Polygon","coordinates":[[[30.3342,38.0425],[30.4074,38.0161],[30.4809,38.0243],[30.5133,37.999],[30.5317,38.0053],[30.5601,38.0572],[30.7038,38.0491],[30.7132,38.0173],[30.6921,37.9813],[30.7149,37.9444],[30.8244,37.8567],[30.8217,37.827],[30.7933,37.7931],[30.794,37.7581],[30.7184,37.7602],[30.7368,37.794],[30.7027,37.8207],[30.6392,37.8312],[30.5934,37.8175],[30.5611,37.8352],[30.5421,37.8682],[30.4992,37.861],[30.4934,37.8403],[30.4609,37.8342],[30.4572,37.771],[30.4845,37.6911],[30.4496,37.6538],[30.4761,37.6158],[30.3851,37.5933],[30.4014,37.5765],[30.3973,37.5507],[30.332,37.5601],[30.2884,37.5275],[30.2847,37.5119],[30.328,37.4539],[30.2881,37.3966],[30.1943,37.3829],[30.1218,37.3207],[30.1222,37.2742],[30.0753,37.28],[29.9958,37.2208],[29.9988,37.139],[29.9237,37.1689],[29.8328,37.131],[29.8376,37.191],[29.7333,37.2556],[29.715,37.2944],[29.714,37.3523],[29.6751,37.418],[29.6783,37.4451],[29.5724,37.5461],[29.5729,37.5829],[29.6229,37.6269],[29.5503,37.6602],[29.5745,37.734],[29.6356,37.7289],[29.6178,37.8373],[29.6791,37.8817],[29.6336,37.9584],[29.6611,37.9787],[29.6809,38.0222],[29.7331,38.0097],[29.77,38.0275],[29.8006,38.0905],[29.796,38.1175],[29.8181,38.1422],[29.8654,38.1414],[29.8767,38.1017],[29.9514,38.0594],[30.0072,38.0573],[30.0885,38.0979],[30.0671,38.0481],[30.1023,38.0163],[30.1122,37.9418],[30.1617,37.9331],[30.1686,37.8805],[30.252,37.9026],[30.2809,37.9363],[30.2915,37.9803],[30.3295,37.9997],[30.3215,38.0308],[30.3342,38.0425]]]}},{"type":"Feature","properties":{"no":"11","ad":"Akarçay Havzası"},"geometry":{"type":"Polygon","coordinates":[[[31.5575,38.0674],[31.5271,38.0944],[31.5328,38.1287],[31.4987,38.183],[31.46,38.1965],[31.4166,38.1862],[31.371,38.2112],[31.3353,38.2716],[31.2978,38.295],[31.2745,38.3538],[31.2281,38.3826],[31.2124,38.4348],[31.1072,38.5007],[31.0574,38.482],[31.0341,38.4886],[30.9268,38.4035],[30.8769,38.3912],[30.8376,38.3579],[30.8083,38.3654],[30.7994,38.3402],[30.8163,38.3317],[30.7936,38.3068],[30.5835,38.2196],[30.5417,38.2586],[30.5455,38.3394],[30.5067,38.3752],[30.4179,38.3848],[30.3577,38.5349],[30.387,38.5639],[30.4029,38.6166],[30.4451,38.6434],[30.3653,38.679],[30.3209,38.6668],[30.2601,38.6798],[30.1534,38.6327],[30.1484,38.6546],[30.109,38.6656],[30.0582,38.7315],[30.0027,38.7398],[30.0136,38.8023],[30.0327,38.8203],[30.0676,38.8201],[30.0848,38.8468],[30.1785,38.8596],[30.2079,38.9136],[30.3255,38.8735],[30.3707,38.8827],[30.3926,38.9651],[30.369,39.0],[30.4204,39.0186],[30.4278,39.0611],[30.4975,39.1196],[30.6072,39.08],[30.6947,39.0159],[30.6882,38.994],[30.7526,38.9893],[30.7558,38.9618],[30.8391,38.9639],[30.8406,38.9288],[30.8816,38.9186],[30.9151,38.8861],[31.0691,38.8465],[31.139,38.8505],[31.1873,38.8216],[31.2755,38.8146],[31.3149,38.7928],[31.3262,38.7574],[31.3521,38.7673],[31.4094,38.7441],[31.4536,38.6933],[31.5127,38.6921],[31.6002,38.647],[31.6626,38.6608],[31.6976,38.6528],[31.7176,38.6195],[31.7651,38.601],[31.7699,38.5412],[31.795,38.5307],[31.8192,38.492],[31.7701,38.3936],[31.7138,38.3601],[31.7255,38.316],[31.6785,38.258],[31.6669,38.2019],[31.6213,38.1699],[31.5575,38.0674]]]}},{"type":"Feature","properties":{"no":"12","ad":"Sakarya Havzası"},"geometry":{"type":"Polygon","coordinates":[[[30.9213,41.0717],[30.885,41.0223],[30.8054,41.0075],[30.7901,40.9647],[30.8159,40.9239],[30.7975,40.8919],[30.8439,40.871],[30.8472,40.855],[30.8645,40.8584],[30.8558,40.8357],[30.8673,40.8164],[30.9046,40.8174],[30.945,40.7863],[30.8213,40.7245],[30.7761,40.665],[30.8318,40.6312],[30.8987,40.6546],[30.9246,40.6332],[31.0972,40.6543],[31.1997,40.6174],[31.251,40.6224],[31.224,40.5939],[31.2307,40.5821],[31.3277,40.5972],[31.4194,40.5524],[31.6459,40.6469],[31.8288,40.6745],[31.8437,40.6536],[31.815,40.6336],[31.8031,40.5771],[31.863,40.5155],[31.9708,40.4844],[32.0916,40.5012],[32.1416,40.5432],[32.2654,40.5497],[32.2624,40.5621],[32.3147,40.582],[32.3766,40.5799],[32.4034,40.5966],[32.4701,40.5798],[32.4147,40.6459],[32.4088,40.6824],[32.4809,40.712],[32.4986,40.7367],[32.5195,40.7341],[32.5345,40.7565],[32.6095,40.7499],[32.6414,40.7186],[32.6704,40.7546],[32.7597,40.6645],[32.8615,40.646],[32.8112,40.6124],[32.8672,40.5722],[32.8552,40.537],[32.8923,40.525],[32.9541,40.538],[32.9546,40.5115],[32.9916,40.4984],[32.9982,40.4764],[33.0999,40.4593],[33.0916,40.4005],[33.1279,40.3544],[33.08,40.3144],[33.0694,40.2858],[33.1187,40.2329],[33.1699,40.2019],[33.2032,40.1997],[33.2245,40.1742],[33.2059,40.1466],[33.1992,40.0745],[33.2337,40.0532],[33.2345,40.0274],[33.1627,39.9092],[33.1254,39.8872],[33.1236,39.8569],[33.1021,39.833],[33.0049,39.8105],[32.9048,39.7302],[32.913,39.6651],[32.8367,39.5765],[32.8202,39.5251],[32.8268,39.4757],[32.7896,39.462],[32.772,39.4],[32.6453,39.3941],[32.6507,39.3782],[32.6245,39.3367],[32.6498,39.3096],[32.6456,39.2669],[32.6861,39.2298],[32.6717,39.2066],[32.6878,39.1393],[32.6233,39.0984],[32.6719,39.0533],[32.7059,39.0694],[32.7344,39.063],[32.728,39.0082],[32.7007,38.9675],[32.5922,38.9595],[32.5866,38.9292],[32.4545,38.8374],[32.4515,38.7987],[32.4185,38.7644],[32.5535,38.6451],[32.6033,38.6366],[32.6244,38.611],[32.6,38.5518],[32.6266,38.5431],[32.6275,38.527],[32.5621,38.4723],[32.5195,38.3403],[32.4771,38.2987],[32.4749,38.2547],[32.4416,38.217],[32.4841,38.1573],[32.4492,38.1275],[32.377,38.137],[32.3033,38.1096],[32.2527,38.1157],[32.1215,38.0853],[32.0732,38.0913],[32.0287,38.0797],[32.0347,38.0583],[31.9706,38.0182],[31.7655,38.0154],[31.7296,37.9791],[31.683,37.9805],[31.645,37.9605],[31.6503,38.0012],[31.5628,38.0461],[31.5575,38.0674],[31.6213,38.1699],[31.6669,38.2019],[31.6785,38.258],[31.7255,38.316],[31.7138,38.3601],[31.7701,38.3936],[31.8192,38.492],[31.795,38.5307],[31.7699,38.5412],[31.7651,38.601],[31.7176,38.6195],[31.6976,38.6528],[31.6626,38.6608],[31.6002,38.647],[31.5127,38.6921],[31.4536,38.6933],[31.4094,38.7441],[31.3521,38.7673],[31.3262,38.7574],[31.3149,38.7928],[31.2755,38.8146],[31.1873,38.8216],[31.139,38.8505],[31.0691,38.8465],[30.9151,38.8861],[30.8816,38.9186],[30.8406,38.9288],[30.8391,38.9639],[30.7558,38.9618],[30.7526,38.9893],[30.6882,38.994],[30.6947,39.0159],[30.6072,39.08],[30.4975,39.1196],[30.4278,39.0611],[30.4204,39.0186],[30.369,39.0],[30.3926,38.9651],[30.3707,38.8827],[30.3255,38.8735],[30.2079,38.9136],[30.1785,38.8596],[30.0848,38.8468],[30.0676,38.8201],[30.0259,38.816],[29.9955,38.7371],[29.9578,38.7413],[29.9425,38.8068],[29.9562,38.8555],[29.9221,38.9002],[29.7623,38.9182],[29.7213,38.9724],[29.7339,39.0039],[29.7082,39.0215],[29.7392,39.0416],[29.7397,39.0649],[29.7166,39.0876],[29.7709,39.1717],[29.7644,39.2221],[29.7426,39.2552],[29.7879,39.2924],[29.7537,39.3682],[29.7836,39.3718],[29.8147,39.4025],[29.7937,39.4338],[29.7203,39.4574],[29.6738,39.5074],[29.6781,39.5236],[29.6427,39.5738],[29.698,39.5734],[29.8396,39.6122],[29.8577,39.6952],[29.8026,39.7015],[29.7843,39.7191],[29.7783,39.7821],[29.7985,39.8023],[29.7069,39.8629],[29.662,39.8546],[29.6187,39.8734],[29.5472,39.8615],[29.4354,39.913],[29.3724,39.9138],[29.3519,39.9582],[29.2686,40.0426],[29.37,40.1718],[29.3716,40.2142],[29.3297,40.2483],[29.3322,40.2747],[29.4026,40.3367],[29.4281,40.3283],[29.554,40.3561],[29.7795,40.363],[29.8598,40.4018],[29.9693,40.4217],[29.9853,40.4393],[29.9589,40.4605],[29.8543,40.4563],[29.851,40.4741],[29.9536,40.5604],[30.0033,40.5576],[30.0334,40.535],[30.0319,40.5161],[30.1239,40.5649],[30.1176,40.6224],[30.0678,40.6741],[30.0642,40.6991],[30.0849,40.7271],[30.1663,40.7366],[30.2132,40.8186],[30.0759,40.8666],[30.2443,40.9476],[30.2429,41.026],[30.2667,41.061],[30.2804,41.2037],[30.5076,41.1425],[30.6536,41.1269],[30.7578,41.0864],[30.9213,41.0717]]]}},{"type":"Feature","properties":{"no":"13","ad":"Batı Karadeniz Havzası"},"geometry":{"type":"Polygon","coordinates":[[[35.5073,41.6359],[35.439,41.5516],[35.4521,41.4648],[35.483,41.4468],[35.4381,41.4056],[35.3893,41.4097],[35.3697,41.4272],[35.3311,41.4215],[35.2995,41.4652],[35.2299,41.4638],[35.17,41.5055],[35.1427,41.5064],[35.109,41.531],[35.1243,41.5805],[35.0987,41.5958],[35.0291,41.5933],[35.0274,41.6241],[34.9996,41.6344],[34.8313,41.637],[34.7524,41.6159],[34.7034,41.6484],[34.7062,41.6718],[34.6379,41.6849],[34.5835,41.6767],[34.5549,41.6931],[34.5474,41.7215],[34.4716,41.7045],[34.4624,41.7202],[34.3649,41.7174],[34.3035,41.7442],[34.1963,41.7318],[34.1718,41.748],[34.1298,41.7334],[34.0887,41.7574],[34.0411,41.7613],[33.9875,41.7216],[33.9991,41.6895],[34.0476,41.6716],[34.0074,41.6373],[34.0338,41.6019],[33.9097,41.5688],[33.8844,41.5472],[33.7973,41.5653],[33.7081,41.5496],[33.6112,41.557],[33.5708,41.538],[33.4245,41.5559],[33.3546,41.5017],[33.2872,41.4808],[33.2855,41.4597],[33.2639,41.4449],[33.274,41.3883],[33.3562,41.381],[33.3878,41.3483],[33.4316,41.334],[33.5655,41.3787],[33.6284,41.3282],[33.6656,41.3199],[33.6611,41.281],[33.6391,41.257],[33.6702,41.2394],[33.6952,41.1657],[33.6814,41.0564],[33.6294,41.0199],[33.5352,41.0147],[33.3623,40.9414],[33.236,40.9242],[33.1624,40.8939],[33.1779,40.8584],[33.2183,40.8338],[33.216,40.7985],[33.1541,40.7483],[33.0513,40.7464],[32.9918,40.654],[32.93,40.6291],[32.7597,40.6645],[32.6704,40.7546],[32.6414,40.7186],[32.6095,40.7499],[32.5345,40.7565],[32.5195,40.7341],[32.4986,40.7367],[32.4809,40.712],[32.4386,40.7023],[32.4042,40.6721],[32.4701,40.5798],[32.4034,40.5966],[32.3766,40.5799],[32.3147,40.582],[32.2624,40.5621],[32.2654,40.5497],[32.1416,40.5432],[32.0916,40.5012],[31.9708,40.4844],[31.863,40.5155],[31.8031,40.5771],[31.815,40.6336],[31.8437,40.6536],[31.8288,40.6745],[31.6459,40.6469],[31.4194,40.5524],[31.3277,40.5972],[31.2307,40.5821],[31.224,40.5939],[31.251,40.6224],[31.1997,40.6174],[31.0972,40.6543],[30.9246,40.6332],[30.8987,40.6546],[30.8318,40.6312],[30.7742,40.6608],[30.8213,40.7245],[30.9451,40.7834],[30.9046,40.8174],[30.8673,40.8164],[30.8558,40.8357],[30.8645,40.8584],[30.8472,40.855],[30.8439,40.871],[30.7975,40.8919],[30.8159,40.9239],[30.7901,40.9647],[30.8054,41.0075],[30.885,41.0223],[30.9213,41.0717],[31.0693,41.0771],[31.3021,41.118],[31.4089,41.2132],[31.4039,41.2422],[31.4239,41.2687],[31.3944,41.2886],[31.4,41.3152],[31.6226,41.3823],[31.7595,41.4541],[31.7901,41.4537],[31.8734,41.5138],[32.1375,41.6009],[32.2256,41.6702],[32.2305,41.6896],[32.2877,41.7204],[32.3352,41.72],[32.3832,41.7499],[32.414,41.739],[32.5085,41.8058],[32.5718,41.8101],[32.5842,41.8267],[32.674,41.8294],[32.9607,41.8849],[33.0307,41.9258],[33.1657,41.9517],[33.3332,42.0157],[33.7824,41.9705],[34.0975,41.9773],[34.3018,41.9381],[34.4836,41.975],[34.5599,41.9458],[34.725,41.9423],[34.802,41.9546],[34.8702,41.9936],[34.9472,42.0719],[34.9416,42.0946],[35.0102,42.0962],[35.0659,42.0303],[35.1175,42.0241],[35.1871,42.0418],[35.2093,42.0192],[35.1202,42.014],[35.0907,41.9271],[35.1313,41.8559],[35.2064,41.8023],[35.1944,41.792],[35.2121,41.764],[35.2854,41.7113],[35.4171,41.6818],[35.5073,41.6359]]]}},{"type":"Feature","properties":{"no":"14","ad":"Yeşilırmak Havzası"},"geometry":{"type":"Polygon","coordinates":[[[36.2209,41.3835],[36.2446,41.3539],[36.3325,41.3188],[36.3402,41.2879],[36.4165,41.2478],[36.4907,41.2488],[36.5547,41.2793],[36.6239,41.3711],[36.8771,41.3374],[37.015,41.2723],[37.038,41.1865],[37.1595,41.1463],[37.1304,41.108],[37.0185,41.0796],[36.9823,41.0044],[36.924,40.969],[36.9309,40.9455],[36.8984,40.8704],[36.9951,40.8441],[36.9906,40.8211],[37.022,40.8045],[37.0302,40.7716],[37.1261,40.7679],[37.1576,40.733],[37.2015,40.7433],[37.2197,40.7217],[37.2179,40.6849],[37.2733,40.6626],[37.3079,40.6688],[37.3364,40.6088],[37.3144,40.5688],[37.3422,40.5459],[37.3889,40.5265],[37.4318,40.5329],[37.4366,40.5212],[37.5446,40.5219],[37.5485,40.5111],[37.5776,40.5292],[37.6009,40.5153],[37.6081,40.4934],[37.5695,40.4529],[37.582,40.4288],[37.5694,40.4142],[37.5873,40.3925],[37.5657,40.3771],[37.5803,40.3621],[37.7772,40.3262],[37.9066,40.3291],[38.0035,40.3488],[38.0374,40.3369],[38.1103,40.3601],[38.1295,40.3919],[38.1589,40.4002],[38.182,40.4814],[38.2127,40.4935],[38.4054,40.4467],[38.4333,40.4789],[38.4577,40.4747],[38.5081,40.4988],[38.5714,40.469],[38.6688,40.4855],[38.7038,40.4725],[38.7752,40.4955],[38.8505,40.4852],[39.005,40.4437],[39.0236,40.392],[39.0608,40.388],[39.0802,40.3635],[39.1204,40.3531],[39.1658,40.2972],[39.2289,40.2674],[39.251,40.2639],[39.2907,40.2992],[39.352,40.3054],[39.3582,40.2879],[39.4353,40.2787],[39.4969,40.2396],[39.5408,40.2577],[39.5416,40.2769],[39.5738,40.2985],[39.6315,40.3214],[39.6372,40.3022],[39.7005,40.2809],[39.7766,40.2966],[39.7939,40.2638],[39.7801,40.2082],[39.8055,40.1736],[39.7497,40.1549],[39.6925,40.1096],[39.6985,40.0819],[39.6805,40.0777],[39.6748,40.0141],[39.7554,39.9781],[39.7852,39.927],[39.6718,39.8922],[39.6499,39.8703],[39.6333,39.8763],[39.6168,39.8514],[39.5699,39.8893],[39.5061,39.8917],[39.4369,39.8601],[39.3667,39.8851],[39.3516,39.9053],[39.1756,39.9363],[39.071,39.9127],[39.0607,39.8838],[39.0073,39.867],[38.9879,39.8433],[38.9476,39.8449],[38.91,39.8673],[38.7916,39.8229],[38.7395,39.8216],[38.51,39.868],[38.4143,39.8578],[38.3023,39.9638],[38.2536,39.9818],[38.1451,39.9546],[38.1084,39.9763],[38.0724,39.9767],[38.0546,39.9984],[37.9773,39.978],[37.9319,40.0041],[37.9211,40.0384],[37.8663,40.0341],[37.8257,40.0543],[37.7935,40.0514],[37.7654,40.0166],[37.6579,40.0265],[37.6185,40.0487],[37.5742,40.0243],[37.5001,40.0949],[37.4202,40.101],[37.3396,40.0806],[37.219,40.1105],[37.107,40.1137],[37.0901,40.1197],[37.073,40.1777],[36.9948,40.1602],[36.9568,40.1679],[36.9424,40.1982],[36.907,40.1866],[36.8621,40.211],[36.7425,40.2059],[36.6674,40.1424],[36.6783,40.1109],[36.6189,40.0365],[36.6285,39.9858],[36.4443,39.9374],[36.4522,39.9154],[36.4146,39.8529],[36.417,39.8256],[36.4394,39.8046],[36.4126,39.725],[36.2847,39.6684],[36.2249,39.6924],[36.1757,39.6907],[36.17,39.6757],[36.0466,39.6245],[36.0322,39.5686],[35.995,39.5202],[35.922,39.5246],[35.8736,39.4822],[35.8629,39.4908],[35.874,39.5174],[35.8167,39.5701],[35.818,39.5977],[35.7578,39.6107],[35.7461,39.6265],[35.6789,39.6155],[35.6778,39.6378],[35.6511,39.656],[35.5923,39.6573],[35.5242,39.6066],[35.4806,39.6682],[35.4776,39.7368],[35.4247,39.7473],[35.4081,39.7814],[35.36,39.8079],[35.3939,39.8766],[35.3799,39.9262],[35.2922,39.9526],[35.2484,39.9343],[35.215,39.9481],[35.1561,39.8965],[35.0985,39.8806],[35.0612,39.8966],[35.0476,39.8842],[34.984,39.8862],[34.8786,39.9289],[34.8175,39.9071],[34.7934,39.877],[34.7566,39.896],[34.7725,39.9199],[34.7755,39.9796],[34.7379,39.9848],[34.6946,40.0214],[34.6887,40.0683],[34.6645,40.0867],[34.6481,40.1323],[34.6595,40.1697],[34.6381,40.1787],[34.6506,40.2067],[34.6865,40.1949],[34.7389,40.2485],[34.6755,40.2578],[34.6479,40.2896],[34.607,40.2792],[34.6077,40.2925],[34.5061,40.3332],[34.4876,40.3542],[34.514,40.3715],[34.5933,40.376],[34.6295,40.436],[34.7099,40.4934],[34.7146,40.546],[34.7819,40.6053],[34.812,40.7132],[34.825,40.7167],[34.8556,40.6835],[34.9148,40.6803],[34.9551,40.7117],[35.0051,40.7237],[35.046,40.7126],[35.0847,40.748],[35.1799,40.7735],[35.1916,40.7997],[35.143,40.8114],[35.0948,40.8801],[35.0988,40.9028],[35.3383,40.9096],[35.3761,40.9448],[35.4064,40.9342],[35.4727,40.9805],[35.5291,40.9767],[35.5854,41.0142],[35.7277,41.0041],[35.7593,41.0184],[35.8012,41.0062],[35.8483,41.0233],[35.8671,41.126],[35.9116,41.1534],[35.9149,41.2238],[35.9355,41.2555],[35.9907,41.2617],[36.0221,41.2821],[36.03,41.3096],[36.0924,41.316],[36.1919,41.386],[36.2209,41.3835]]]}},{"type":"Feature","properties":{"no":"15","ad":"Kızılırmak Havzası"},"geometry":{"type":"Polygon","coordinates":[[[35.5073,41.6359],[35.6315,41.6363],[35.9718,41.7337],[35.986,41.713],[36.0584,41.6863],[36.1169,41.6254],[36.1393,41.5494],[36.1237,41.4787],[36.2209,41.3835],[36.1919,41.386],[36.0924,41.316],[36.03,41.3096],[36.0221,41.2821],[35.9907,41.2617],[35.9355,41.2555],[35.9149,41.2238],[35.9116,41.1534],[35.8671,41.126],[35.8483,41.0233],[35.8012,41.0062],[35.7593,41.0184],[35.7277,41.0041],[35.5854,41.0142],[35.5291,40.9767],[35.4727,40.9805],[35.4064,40.9342],[35.3761,40.9448],[35.3383,40.9096],[35.0988,40.9028],[35.0948,40.8801],[35.143,40.8114],[35.1916,40.7997],[35.1799,40.7735],[35.0847,40.748],[35.046,40.7126],[35.0051,40.7237],[34.9551,40.7117],[34.9148,40.6803],[34.8556,40.6835],[34.825,40.7167],[34.812,40.7132],[34.7819,40.6053],[34.7146,40.546],[34.7099,40.4934],[34.6295,40.436],[34.5933,40.376],[34.514,40.3715],[34.4876,40.3542],[34.5061,40.3332],[34.6077,40.2925],[34.607,40.2792],[34.6479,40.2896],[34.6755,40.2578],[34.7389,40.2485],[34.6865,40.1949],[34.6506,40.2067],[34.6381,40.1787],[34.6595,40.1697],[34.6481,40.1323],[34.6645,40.0867],[34.6887,40.0683],[34.6946,40.0214],[34.7379,39.9848],[34.7755,39.9796],[34.7725,39.9199],[34.7566,39.9004],[34.7737,39.8802],[34.7934,39.877],[34.8175,39.9071],[34.8786,39.9289],[34.984,39.8862],[35.0476,39.8842],[35.0612,39.8966],[35.0985,39.8806],[35.1561,39.8965],[35.215,39.9481],[35.2484,39.9343],[35.2922,39.9526],[35.3799,39.9262],[35.3939,39.8766],[35.36,39.8079],[35.4081,39.7814],[35.4247,39.7473],[35.4776,39.7368],[35.4806,39.6682],[35.5242,39.6066],[35.5923,39.6573],[35.6511,39.656],[35.6778,39.6378],[35.6789,39.6155],[35.7461,39.6265],[35.7578,39.6107],[35.818,39.5977],[35.8167,39.5701],[35.874,39.5174],[35.8629,39.4908],[35.8736,39.4822],[35.922,39.5246],[35.995,39.5202],[36.0322,39.5686],[36.0466,39.6245],[36.17,39.6757],[36.1757,39.6907],[36.2249,39.6924],[36.2847,39.6684],[36.4126,39.725],[36.4394,39.8046],[36.417,39.8256],[36.4146,39.8529],[36.4522,39.9154],[36.4443,39.9374],[36.6285,39.9858],[36.6189,40.0365],[36.6783,40.1109],[36.6674,40.1424],[36.7425,40.2059],[36.8621,40.211],[36.907,40.1866],[36.9424,40.1982],[36.9568,40.1679],[36.9948,40.1602],[37.073,40.1777],[37.0901,40.1197],[37.107,40.1137],[37.219,40.1105],[37.3396,40.0806],[37.4202,40.101],[37.5001,40.0949],[37.5742,40.0243],[37.6185,40.0487],[37.6579,40.0265],[37.7654,40.0166],[37.7935,40.0514],[37.8257,40.0543],[37.8663,40.0341],[37.9211,40.0384],[37.9319,40.0041],[37.9773,39.978],[38.0546,39.9984],[38.0724,39.9767],[38.1084,39.9763],[38.1451,39.9546],[38.2536,39.9818],[38.3023,39.9638],[38.4143,39.8578],[38.3669,39.8304],[38.3513,39.7841],[38.2922,39.7958],[38.2677,39.7645],[38.2141,39.778],[38.1781,39.768],[38.1362,39.703],[37.9851,39.7088],[37.9386,39.6737],[37.8991,39.6732],[37.8981,39.641],[37.9227,39.595],[37.8609,39.5958],[37.8127,39.5777],[37.7759,39.5842],[37.7472,39.6163],[37.6929,39.6164],[37.4998,39.5338],[37.3677,39.5091],[37.3592,39.4924],[37.3838,39.4736],[37.3787,39.4436],[37.3991,39.4427],[37.404,39.4252],[37.3329,39.3893],[37.2505,39.3855],[37.1728,39.3326],[37.1126,39.3127],[37.0164,39.3088],[36.9816,39.2886],[36.9107,39.2797],[36.7945,39.1902],[36.6011,39.1598],[36.5629,39.1779],[36.5463,39.1579],[36.5077,39.1535],[36.4543,39.18],[36.4185,39.1722],[36.4034,39.1118],[36.3273,39.043],[36.3098,38.997],[36.3214,38.9462],[36.2417,38.9354],[36.1949,38.9562],[36.1551,38.8953],[36.0589,38.8816],[36.0568,38.8612],[36.0164,38.8395],[36.0205,38.8173],[35.99,38.7716],[35.9163,38.7416],[35.8962,38.6925],[35.7966,38.6853],[35.7713,38.6713],[35.7743,38.6333],[35.7,38.5793],[35.6556,38.5653],[35.6012,38.5742],[35.5585,38.544],[35.5502,38.5192],[35.5911,38.4829],[35.5984,38.4489],[35.5117,38.3216],[35.5235,38.2605],[35.5054,38.2321],[35.5183,38.1903],[35.4985,38.1188],[35.4554,38.0806],[35.4205,38.0194],[35.2872,38.0067],[35.2412,38.0351],[35.2017,37.953],[35.1504,37.9467],[35.0445,37.9822],[35.0622,38.0062],[35.0477,38.0698],[34.9723,38.0979],[34.9495,38.2299],[34.9134,38.2429],[34.8921,38.2878],[34.8633,38.2767],[34.8175,38.3079],[34.8085,38.3832],[34.8622,38.4385],[34.8786,38.4363],[34.8883,38.462],[34.8555,38.5088],[34.7876,38.5194],[34.7234,38.4926],[34.6854,38.5041],[34.6033,38.4422],[34.5688,38.449],[34.5309,38.4952],[34.4481,38.5223],[34.3841,38.5161],[34.3651,38.4855],[34.3229,38.4755],[34.2975,38.5023],[34.1625,38.5498],[34.1551,38.5929],[34.1134,38.6012],[34.0773,38.6397],[34.0094,38.6713],[33.9666,38.7262],[33.9353,38.8188],[33.8306,38.8712],[33.7541,38.9307],[33.6594,39.05],[33.6326,39.0325],[33.5755,39.0492],[33.496,39.041],[33.4784,39.0793],[33.4059,39.1144],[33.3381,39.1973],[33.2623,39.2402],[33.22,39.239],[33.1871,39.209],[33.1551,39.2124],[33.0722,39.1631],[33.0125,39.1757],[32.9896,39.2118],[32.9418,39.2187],[32.9439,39.3484],[32.8971,39.4464],[32.8524,39.4851],[32.8268,39.4757],[32.8202,39.5251],[32.8367,39.5765],[32.913,39.6651],[32.9048,39.7302],[33.0049,39.8105],[33.1021,39.833],[33.1236,39.8569],[33.1254,39.8872],[33.1627,39.9092],[33.1882,39.9661],[33.2201,39.994],[33.2337,40.0532],[33.1992,40.0745],[33.2059,40.1466],[33.2245,40.1742],[33.2032,40.1997],[33.1699,40.2019],[33.1187,40.2329],[33.0694,40.2858],[33.08,40.3144],[33.1279,40.3544],[33.0916,40.4005],[33.0999,40.4593],[32.9982,40.4764],[32.9916,40.4984],[32.9546,40.5115],[32.9541,40.538],[32.8923,40.525],[32.8552,40.537],[32.8672,40.5722],[32.8112,40.6124],[32.8652,40.6407],[32.93,40.6291],[32.9856,40.649],[33.0513,40.7464],[33.1541,40.7483],[33.1891,40.774],[33.216,40.7985],[33.2194,40.8303],[33.1604,40.886],[33.1979,40.9132],[33.3623,40.9414],[33.5352,41.0147],[33.6294,41.0199],[33.6814,41.0564],[33.6952,41.1657],[33.6702,41.2394],[33.6391,41.257],[33.6611,41.281],[33.6656,41.3199],[33.6284,41.3282],[33.5655,41.3787],[33.4316,41.334],[33.3878,41.3483],[33.3562,41.381],[33.274,41.3883],[33.2639,41.4449],[33.2855,41.4597],[33.2872,41.4808],[33.3546,41.5017],[33.4245,41.5559],[33.5708,41.538],[33.6112,41.557],[33.7081,41.5496],[33.7973,41.5653],[33.8844,41.5472],[33.9097,41.5688],[34.0338,41.6019],[34.0074,41.6373],[34.0476,41.6716],[33.9991,41.6895],[33.9875,41.7216],[34.0411,41.7613],[34.0887,41.7574],[34.1298,41.7334],[34.1718,41.748],[34.1963,41.7318],[34.3035,41.7442],[34.3649,41.7174],[34.4624,41.7202],[34.4716,41.7045],[34.5474,41.7215],[34.5549,41.6931],[34.5835,41.6767],[34.6379,41.6849],[34.7062,41.6718],[34.7034,41.6484],[34.7524,41.6159],[34.8313,41.637],[34.9996,41.6344],[35.0274,41.6241],[35.0291,41.5933],[35.0987,41.5958],[35.1243,41.5805],[35.109,41.531],[35.1427,41.5064],[35.17,41.5055],[35.2299,41.4638],[35.2995,41.4652],[35.3311,41.4215],[35.3697,41.4272],[35.3893,41.4097],[35.4381,41.4056],[35.483,41.4468],[35.4521,41.4648],[35.439,41.5516],[35.5073,41.6359]]]}},{"type":"Feature","properties":{"no":"16","ad":"Konya Kapalı Havzası"},"geometry":{"type":"Polygon","coordinates":[[[35.0445,37.9822],[35.0001,37.972],[34.956,37.9905],[34.8567,37.9723],[34.8716,37.919],[34.8313,37.7987],[34.7829,37.781],[34.6673,37.6925],[34.5365,37.6645],[34.5244,37.5965],[34.3979,37.5558],[34.3883,37.5239],[34.4193,37.5132],[34.3914,37.4975],[34.4254,37.4406],[34.515,37.3816],[34.3985,37.3424],[34.3998,37.3281],[34.4683,37.314],[34.4648,37.2874],[34.2048,37.1914],[34.1246,37.1886],[34.1744,37.1689],[34.1378,37.1386],[34.1337,37.0961],[34.0607,37.0669],[34.0062,37.0749],[33.9419,37.0233],[33.8892,37.0103],[33.718,37.0301],[33.7055,36.9972],[33.5951,36.9415],[33.5154,36.9709],[33.4585,36.9723],[33.352,36.9499],[33.3483,36.9185],[33.2974,36.9123],[33.1677,36.9534],[33.1401,36.9904],[33.0398,37.0189],[33.0163,37.0421],[33.0183,37.0862],[32.9908,37.1041],[32.9909,37.1434],[32.808,37.221],[32.7446,37.2299],[32.7338,37.2026],[32.6447,37.2005],[32.5979,37.2105],[32.5866,37.2439],[32.4821,37.2488],[32.4239,37.1756],[32.363,37.1923],[32.3448,37.2271],[32.3017,37.195],[32.3093,37.1595],[32.2814,37.1038],[32.2548,37.1055],[32.2278,37.072],[32.2148,37.0862],[32.1569,37.0879],[32.1474,37.0604],[32.0688,37.0441],[32.0347,37.077],[31.9788,37.0952],[31.9281,37.1765],[31.9106,37.1799],[31.8956,37.2264],[31.842,37.2527],[31.8396,37.3143],[31.5967,37.3213],[31.5731,37.3408],[31.5225,37.3298],[31.5358,37.2826],[31.4493,37.2494],[31.4289,37.2956],[31.3989,37.3129],[31.3999,37.3427],[31.3746,37.3485],[31.3648,37.3781],[31.3236,37.4106],[31.3429,37.5381],[31.3163,37.6052],[31.28,37.6297],[31.3041,37.6883],[31.2915,37.727],[31.2582,37.76],[31.2807,37.7836],[31.2693,37.8233],[31.1642,37.924],[31.1391,37.967],[31.1416,37.9989],[31.2089,38.0147],[31.1772,38.0462],[31.1243,38.0645],[31.175,38.1135],[31.2422,38.1478],[31.3041,38.1638],[31.3652,38.1553],[31.4087,38.1893],[31.46,38.1965],[31.4987,38.183],[31.5034,38.1581],[31.5271,38.1466],[31.5271,38.0944],[31.5628,38.0461],[31.6503,38.0012],[31.6407,37.9687],[31.6555,37.9593],[31.683,37.9805],[31.7296,37.9791],[31.7655,38.0154],[31.9706,38.0182],[32.0347,38.0583],[32.0287,38.0797],[32.0732,38.0913],[32.1215,38.0853],[32.2527,38.1157],[32.3033,38.1096],[32.377,38.137],[32.4438,38.1255],[32.4825,38.1519],[32.4416,38.217],[32.4749,38.2547],[32.4771,38.2987],[32.5195,38.3403],[32.5621,38.4723],[32.6275,38.527],[32.6266,38.5431],[32.6,38.5518],[32.6244,38.611],[32.6033,38.6366],[32.5535,38.6451],[32.4185,38.7644],[32.4515,38.7987],[32.4545,38.8374],[32.5866,38.9292],[32.5922,38.9595],[32.7007,38.9675],[32.7268,39.0042],[32.7344,39.063],[32.7059,39.0694],[32.6719,39.0533],[32.6233,39.0984],[32.6878,39.1393],[32.6717,39.2066],[32.6861,39.2298],[32.6456,39.2669],[32.6498,39.3096],[32.6245,39.3367],[32.6494,39.3971],[32.7638,39.3946],[32.7833,39.4174],[32.7896,39.462],[32.8491,39.4853],[32.8971,39.4464],[32.9439,39.3484],[32.9418,39.2187],[32.9896,39.2118],[33.0125,39.1757],[33.0722,39.1631],[33.1551,39.2124],[33.1871,39.209],[33.22,39.239],[33.2623,39.2402],[33.3381,39.1973],[33.4059,39.1144],[33.4784,39.0793],[33.496,39.041],[33.5755,39.0492],[33.6326,39.0325],[33.6594,39.05],[33.7541,38.9307],[33.8306,38.8712],[33.9353,38.8188],[33.9666,38.7262],[34.0094,38.6713],[34.0773,38.6397],[34.1134,38.6012],[34.1551,38.5929],[34.1625,38.5498],[34.1812,38.5387],[34.2975,38.5023],[34.3314,38.4737],[34.371,38.4899],[34.3841,38.5161],[34.4481,38.5223],[34.5309,38.4952],[34.5688,38.449],[34.6033,38.4422],[34.6854,38.5041],[34.7234,38.4926],[34.7876,38.5194],[34.8555,38.5088],[34.8883,38.462],[34.8786,38.4363],[34.8622,38.4385],[34.8085,38.3832],[34.8175,38.3079],[34.8633,38.2767],[34.8921,38.2878],[34.9134,38.2429],[34.9495,38.2299],[34.9723,38.0979],[35.0477,38.0698],[35.0622,38.0062],[35.0445,37.9822]]]}},{"type":"Feature","properties":{"no":"17","ad":"Doğu Akdeniz Havzası"},"geometry":{"type":"Polygon","coordinates":[[[34.8988,36.7367],[34.8541,36.7809],[34.7689,36.8092],[34.6495,36.805],[34.5637,36.7706],[34.5411,36.7381],[34.48,36.715],[34.4252,36.664],[34.2781,36.587],[34.1641,36.4687],[34.1156,36.4504],[34.0768,36.4117],[34.0739,36.3175],[33.9989,36.3068],[33.9786,36.2789],[34.0137,36.2966],[33.9513,36.2333],[33.9319,36.2901],[33.864,36.3156],[33.8312,36.2869],[33.8385,36.2748],[33.8134,36.2736],[33.8004,36.2372],[33.6956,36.1744],[33.6965,36.1415],[33.684,36.1345],[33.6697,36.1462],[33.6804,36.1586],[33.6595,36.1596],[33.645,36.1936],[33.5974,36.1798],[33.5587,36.1275],[33.5369,36.1282],[33.543,36.1453],[33.4606,36.1611],[33.3907,36.1256],[33.3498,36.154],[33.2855,36.1301],[33.1474,36.1389],[33.1211,36.1284],[33.08,36.0702],[33.0494,36.0958],[32.9485,36.1044],[32.8674,36.072],[32.7975,36.0186],[32.6772,36.0418],[32.5674,36.0995],[32.5218,36.0965],[32.3906,36.1647],[32.36,36.2032],[32.3006,36.2363],[32.2789,36.2886],[32.2137,36.3453],[32.1789,36.4005],[32.2426,36.4231],[32.2687,36.415],[32.3769,36.4814],[32.3559,36.5268],[32.3967,36.5471],[32.3653,36.5563],[32.3419,36.6056],[32.3131,36.617],[32.2698,36.6799],[32.3592,36.7365],[32.3614,36.7862],[32.3224,36.8238],[32.2697,36.8389],[32.2544,36.8644],[32.1696,36.8996],[32.1874,36.9848],[32.1252,37.0201],[32.1171,37.0521],[32.1526,37.0642],[32.1569,37.0879],[32.2148,37.0862],[32.2278,37.072],[32.2548,37.1055],[32.2814,37.1038],[32.3093,37.1595],[32.3017,37.195],[32.3402,37.2259],[32.363,37.1923],[32.4272,37.1757],[32.4821,37.2488],[32.5471,37.2534],[32.5866,37.2439],[32.5905,37.2178],[32.6147,37.2033],[32.7225,37.2004],[32.7506,37.2299],[32.9243,37.1818],[32.9909,37.1434],[32.9908,37.1041],[33.0183,37.0862],[33.0163,37.0421],[33.0398,37.0189],[33.1401,36.9904],[33.159,36.9581],[33.2316,36.9289],[33.3377,36.9153],[33.3536,36.9228],[33.352,36.9499],[33.4585,36.9723],[33.5154,36.9709],[33.5951,36.9415],[33.7055,36.9972],[33.718,37.0301],[33.8985,37.0108],[33.9077,37.0252],[33.9704,37.035],[34.0062,37.0749],[34.0607,37.0669],[34.1337,37.0961],[34.1378,37.1386],[34.1744,37.1689],[34.1246,37.1886],[34.2048,37.1914],[34.4648,37.2874],[34.4683,37.314],[34.3965,37.3318],[34.4119,37.3509],[34.7513,37.4296],[34.7706,37.4179],[34.7976,37.3347],[34.8385,37.33],[34.8208,37.2931],[34.8383,37.1922],[34.8171,37.158],[34.8351,37.136],[34.8173,37.114],[34.8266,37.0827],[34.8747,37.0821],[34.9662,36.988],[34.9735,36.9435],[34.9536,36.9271],[34.9525,36.8984],[34.9731,36.8409],[34.8988,36.7367]]]}},{"type":"Feature","properties":{"no":"18","ad":"Seyhan Havzası"},"geometry":{"type":"Polygon","coordinates":[[[36.7945,39.1902],[36.867,39.1164],[36.8626,39.0867],[36.8946,39.0848],[36.9084,39.0596],[36.8848,39.0303],[36.9086,39.0202],[36.879,38.9982],[36.8954,38.9534],[36.8567,38.91],[36.8495,38.8255],[36.7794,38.7801],[36.7999,38.7737],[36.8113,38.7287],[36.7581,38.704],[36.7341,38.7138],[36.6775,38.6796],[36.615,38.5696],[36.6279,38.5426],[36.5576,38.494],[36.5654,38.4528],[36.4978,38.4129],[36.4917,38.3651],[36.5251,38.3238],[36.5116,38.2773],[36.4914,38.2623],[36.5124,38.2326],[36.4647,38.2242],[36.3533,38.1348],[36.3509,38.0588],[36.3328,38.03],[36.3843,38.0104],[36.4034,37.9661],[36.4188,37.9619],[36.4278,37.9123],[36.411,37.8765],[36.3813,37.8693],[36.383,37.8471],[36.3611,37.8287],[36.2813,37.83],[36.1822,37.7324],[36.1791,37.7128],[36.137,37.7126],[36.0992,37.6764],[36.0349,37.7338],[35.964,37.7404],[35.9193,37.7092],[35.8655,37.6109],[35.7556,37.6437],[35.6157,37.5757],[35.6231,37.5163],[35.5455,37.4239],[35.5512,37.3366],[35.5302,37.2584],[35.5123,37.2272],[35.4826,37.224],[35.5056,37.1365],[35.5483,37.0829],[35.5555,37.0282],[35.6207,36.9725],[35.5711,36.9037],[35.5643,36.8635],[35.5038,36.8447],[35.4957,36.8549],[35.4661,36.8276],[35.4759,36.7488],[35.4562,36.6894],[35.4847,36.6362],[35.5411,36.6553],[35.5853,36.6106],[35.555,36.5757],[35.5162,36.6115],[35.4898,36.6109],[35.4764,36.5934],[35.5463,36.5757],[35.4138,36.5862],[35.3392,36.5359],[35.3294,36.566],[35.3155,36.5569],[35.0195,36.702],[34.9581,36.723],[34.8931,36.7108],[34.9731,36.8409],[34.9519,36.9101],[34.9736,36.9501],[34.9648,36.9932],[34.9346,37.0319],[34.8747,37.0821],[34.8302,37.0793],[34.8186,37.1003],[34.8354,37.1326],[34.8171,37.158],[34.8383,37.1922],[34.8208,37.2931],[34.8375,37.3321],[34.7976,37.3347],[34.7706,37.4179],[34.7513,37.4296],[34.515,37.3816],[34.4254,37.4406],[34.3914,37.4975],[34.4193,37.5132],[34.3883,37.5239],[34.3979,37.5558],[34.5244,37.5965],[34.5365,37.6645],[34.6673,37.6925],[34.7829,37.781],[34.8313,37.7987],[34.8716,37.919],[34.8607,37.9746],[34.9695,37.9898],[35.0001,37.972],[35.0445,37.9822],[35.0979,37.9561],[35.1958,37.9496],[35.2024,37.9751],[35.2314,37.9941],[35.2343,38.0328],[35.2623,38.032],[35.2934,38.0063],[35.426,38.0233],[35.5039,38.1328],[35.5184,38.1969],[35.5054,38.2321],[35.5235,38.2605],[35.5117,38.3216],[35.5955,38.4374],[35.5911,38.4829],[35.5502,38.5192],[35.5585,38.544],[35.6012,38.5742],[35.6556,38.5653],[35.7,38.5793],[35.7743,38.6333],[35.7713,38.6713],[35.7966,38.6853],[35.8962,38.6925],[35.9163,38.7416],[35.99,38.7716],[36.0205,38.8173],[36.0164,38.8395],[36.0568,38.8612],[36.0589,38.8816],[36.1551,38.8953],[36.1949,38.9562],[36.2417,38.9354],[36.3214,38.9462],[36.3098,38.997],[36.3273,39.043],[36.4034,39.1118],[36.4185,39.1722],[36.4543,39.18],[36.5077,39.1535],[36.5463,39.1579],[36.5629,39.1779],[36.6011,39.1598],[36.7945,39.1902]]]}},{"type":"Feature","properties":{"no":"19","ad":"Asi Havzası"},"geometry":{"type":"Polygon","coordinates":[[[37.0356,37.1448],[37.1269,37.155],[37.1382,37.138],[37.1712,37.1419],[37.2294,37.1187],[37.1881,36.9911],[37.1354,36.9902],[37.141,36.934],[37.0869,36.9118],[37.0931,36.8673],[37.151,36.8452],[37.1211,36.8115],[37.1247,36.7855],[37.091,36.7837],[37.0879,36.7597],[37.1054,36.7468],[37.0914,36.7223],[37.0629,36.71],[36.9225,36.7856],[36.8777,36.7793],[36.7719,36.7984],[36.7191,36.8255],[36.6695,36.8259],[36.6146,36.749],[36.629,36.7097],[36.5716,36.6553],[36.5869,36.5885],[36.5717,36.5231],[36.5463,36.505],[36.5555,36.4433],[36.5842,36.3939],[36.6019,36.3928],[36.5986,36.367],[36.6141,36.3585],[36.5998,36.336],[36.6587,36.3366],[36.6536,36.3004],[36.6904,36.2968],[36.6778,36.2727],[36.6894,36.2418],[36.6599,36.228],[36.6207,36.2397],[36.6168,36.2145],[36.5019,36.2417],[36.5013,36.2245],[36.483,36.232],[36.4655,36.1995],[36.3909,36.2228],[36.3994,36.1912],[36.3626,36.1644],[36.3895,36.0845],[36.3648,36.026],[36.372,36.0076],[36.3352,35.9895],[36.2874,36.0105],[36.2974,35.957],[36.2448,35.9633],[36.1956,35.9459],[36.1775,35.9201],[36.1812,35.8639],[36.1637,35.8126],[36.1092,35.8665],[36.0015,35.882],[36.0207,35.9196],[36.0041,35.9382],[35.922,35.9268],[35.9271,35.9533],[35.9794,36.0159],[35.9007,36.1543],[35.7853,36.2895],[35.783,36.3156],[35.8218,36.36],[35.8575,36.3705],[35.8629,36.3959],[35.8981,36.4173],[35.9095,36.4431],[35.984,36.4753],[36.0387,36.5327],[36.1455,36.5877],[36.192,36.5951],[36.2153,36.659],[36.1944,36.7047],[36.2046,36.7858],[36.1383,36.8645],[36.0209,36.9268],[35.9685,36.9051],[35.9436,36.915],[35.9759,37.0161],[36.0319,37.038],[36.0845,37.0217],[36.172,37.0359],[36.2801,37.0162],[36.3569,36.958],[36.4414,36.9646],[36.4614,36.9537],[36.4894,36.982],[36.4913,37.0103],[36.532,37.0211],[36.5736,37.0584],[36.5935,37.089],[36.5824,37.1011],[36.6078,37.111],[36.6247,37.1527],[36.6624,37.1558],[36.6846,37.175],[36.6792,37.2078],[36.6989,37.2232],[36.7921,37.203],[36.7861,37.181],[36.814,37.1683],[36.8083,37.1529],[36.8301,37.1352],[36.8327,37.1053],[36.811,37.099],[36.8205,37.0762],[36.9361,37.083],[36.9785,37.12],[36.9856,37.1488],[37.0156,37.1651],[37.0382,37.1673],[37.0356,37.1448]]]}},{"type":"Feature","properties":{"no":"20","ad":"Ceyhan Havzası"},"geometry":{"type":"Polygon","coordinates":[[[37.0652,37.1398],[37.0356,37.1448],[37.0382,37.1673],[37.0156,37.1651],[36.9856,37.1488],[36.9785,37.12],[36.9361,37.083],[36.8205,37.0762],[36.811,37.099],[36.8327,37.1053],[36.8301,37.1352],[36.8083,37.1529],[36.814,37.1683],[36.7861,37.181],[36.7921,37.203],[36.6989,37.2232],[36.6792,37.2078],[36.6846,37.175],[36.6624,37.1558],[36.6247,37.1527],[36.6078,37.111],[36.5824,37.1011],[36.5935,37.089],[36.5736,37.0584],[36.532,37.0211],[36.4913,37.0103],[36.4894,36.982],[36.4584,36.9529],[36.4414,36.9646],[36.3569,36.958],[36.2727,37.0191],[36.168,37.0361],[36.0775,37.0218],[36.0319,37.038],[35.9746,37.0147],[35.943,36.9201],[35.9685,36.9051],[35.845,36.7968],[35.7917,36.7649],[35.6683,36.7652],[35.6035,36.7253],[35.5993,36.698],[35.6246,36.7148],[35.6328,36.6978],[35.6489,36.747],[35.6463,36.7072],[35.6572,36.7276],[35.6542,36.7058],[35.7051,36.7113],[35.6979,36.7267],[35.7396,36.7075],[35.6435,36.6635],[35.6198,36.5963],[35.555,36.5757],[35.5853,36.6106],[35.5686,36.6397],[35.538,36.6553],[35.4919,36.6335],[35.457,36.6776],[35.4759,36.7488],[35.4661,36.8276],[35.4957,36.8549],[35.5038,36.8447],[35.5643,36.8635],[35.5711,36.9037],[35.6207,36.9725],[35.5555,37.0282],[35.5483,37.0829],[35.5056,37.1365],[35.4826,37.224],[35.5123,37.2272],[35.5302,37.2584],[35.5512,37.3366],[35.5455,37.4239],[35.6231,37.5163],[35.6157,37.5757],[35.7556,37.6437],[35.8655,37.6109],[35.9193,37.7092],[35.964,37.7404],[36.0349,37.7338],[36.049,37.7094],[36.0927,37.6945],[36.0957,37.6751],[36.137,37.7126],[36.1791,37.7128],[36.1822,37.7324],[36.2813,37.83],[36.3346,37.8206],[36.3803,37.8421],[36.378,37.8657],[36.411,37.8765],[36.4276,37.9157],[36.3902,38.0049],[36.3328,38.03],[36.3509,38.0588],[36.3533,38.1348],[36.4647,38.2242],[36.5124,38.2326],[36.4914,38.2623],[36.5116,38.2773],[36.5251,38.3238],[36.4917,38.3651],[36.4978,38.4129],[36.5654,38.4528],[36.5527,38.4868],[36.6279,38.5426],[36.615,38.5696],[36.6654,38.6636],[36.7341,38.7138],[36.7581,38.704],[36.8009,38.7228],[36.9225,38.6425],[37.0328,38.6769],[37.0838,38.6709],[37.1189,38.6363],[37.1079,38.6186],[37.1242,38.6074],[37.2259,38.5719],[37.3026,38.5809],[37.3166,38.5587],[37.2843,38.5136],[37.3726,38.4877],[37.4098,38.4595],[37.4245,38.4189],[37.4754,38.4072],[37.4731,38.3879],[37.5184,38.3688],[37.5413,38.3867],[37.5569,38.3571],[37.6319,38.3432],[37.6371,38.3247],[37.5994,38.2944],[37.6156,38.2659],[37.6493,38.2637],[37.7011,38.2297],[37.745,38.2289],[37.7622,38.2155],[37.7519,38.1947],[37.7753,38.1901],[37.7274,38.1647],[37.7347,38.1305],[37.6878,38.0858],[37.584,38.0397],[37.4048,38.0223],[37.3571,37.9929],[37.2765,37.9936],[37.2835,37.9757],[37.2473,37.9588],[37.1995,37.9654],[37.1067,37.938],[37.1857,37.8482],[37.2451,37.8201],[37.3737,37.8241],[37.398,37.813],[37.4011,37.7689],[37.439,37.7504],[37.4821,37.7494],[37.5126,37.7823],[37.564,37.781],[37.5881,37.8075],[37.7714,37.8439],[37.7932,37.8286],[37.6586,37.7775],[37.6533,37.7383],[37.6295,37.7183],[37.6415,37.6975],[37.583,37.6808],[37.5746,37.6606],[37.5892,37.6577],[37.5883,37.6408],[37.5552,37.5906],[37.5267,37.595],[37.4948,37.5463],[37.4503,37.5346],[37.4303,37.5089],[37.3739,37.502],[37.318,37.4439],[37.2772,37.4341],[37.2298,37.356],[37.1967,37.3528],[37.18,37.3294],[37.2056,37.274],[37.1428,37.2486],[37.1107,37.2084],[37.1104,37.1838],[37.0813,37.1895],[37.0652,37.1398]]]}},{"type":"Feature","properties":{"no":"21","ad":"Fırat-Dicle Havzası"},"geometry":{"type":"Polygon","coordinates":[[[41.1485,40.3261],[41.1984,40.3132],[41.2099,40.2687],[41.2579,40.2382],[41.2515,40.1892],[41.2814,40.1783],[41.3667,40.1788],[41.4281,40.2266],[41.573,40.1826],[41.5512,40.1349],[41.4978,40.0808],[41.4787,40.0653],[41.4551,40.0757],[41.4025,40.031],[41.3795,39.9549],[41.3469,39.9274],[41.359,39.8996],[41.3348,39.8604],[41.2972,39.8391],[41.2937,39.8055],[41.22,39.7747],[41.2635,39.7354],[41.2664,39.7119],[41.2257,39.6764],[41.1849,39.6647],[41.1627,39.6169],[41.2298,39.578],[41.2252,39.4648],[41.3159,39.3295],[41.375,39.3557],[41.4179,39.4424],[41.5337,39.4604],[41.6131,39.5088],[41.6611,39.5064],[41.7086,39.4818],[41.7746,39.5073],[41.837,39.5031],[41.8456,39.525],[41.9578,39.5644],[42.0814,39.58],[42.1207,39.6052],[42.1294,39.6439],[42.1524,39.6609],[42.2326,39.6834],[42.2232,39.7396],[42.1432,39.7464],[42.0923,39.7934],[42.1194,39.8254],[42.39,39.8632],[42.4339,39.8836],[42.4988,39.8615],[42.5169,39.8956],[42.6232,39.9075],[42.669,39.9368],[42.7316,39.9313],[42.8461,39.9493],[42.8738,39.9698],[42.9671,39.9732],[43.0366,40.008],[43.1186,40.0068],[43.1502,39.9843],[43.3342,39.9762],[43.4069,39.9219],[43.4322,39.8894],[43.4199,39.8747],[43.4242,39.8097],[43.4689,39.7756],[43.497,39.7752],[43.5064,39.7335],[43.5667,39.6915],[43.6514,39.6986],[43.6778,39.6462],[43.6901,39.5673],[43.7419,39.5318],[43.7968,39.3905],[43.8522,39.3552],[43.7451,39.3701],[43.6424,39.33],[43.5615,39.2769],[43.49,39.3284],[43.4566,39.3335],[43.4304,39.383],[43.2855,39.3744],[43.2203,39.3351],[43.165,39.3414],[43.1788,39.241],[43.1507,39.192],[43.1504,39.1539],[43.114,39.1179],[43.1453,39.0833],[43.0847,39.0387],[43.0472,39.044],[42.9171,38.9924],[42.8447,38.937],[42.6462,38.9396],[42.5941,38.9079],[42.5592,38.9332],[42.4851,38.9335],[42.4395,38.958],[42.3742,38.9161],[42.346,38.9358],[42.3172,38.9319],[42.2667,38.8944],[42.1762,38.8759],[42.1493,38.846],[42.1521,38.8171],[42.1217,38.7823],[42.1232,38.7541],[42.1482,38.723],[42.2162,38.7018],[42.2146,38.6661],[42.1903,38.6282],[42.2006,38.6038],[42.2305,38.5899],[42.2268,38.5366],[42.2385,38.501],[42.2584,38.4913],[42.2236,38.4675],[42.2281,38.4478],[42.3163,38.446],[42.352,38.4794],[42.427,38.4407],[42.4393,38.4063],[42.4738,38.4339],[42.5088,38.4388],[42.5278,38.4346],[42.5552,38.3936],[42.6139,38.3817],[42.638,38.3951],[42.636,38.4282],[42.6486,38.4372],[42.7576,38.423],[42.7808,38.394],[42.7885,38.333],[42.8491,38.297],[42.8119,38.2273],[42.9035,38.1968],[42.9368,38.1937],[42.9803,38.2251],[43.032,38.2113],[43.0993,38.2291],[43.161,38.1722],[43.2197,38.1605],[43.2785,38.1905],[43.5307,38.2149],[43.5477,38.1941],[43.6082,38.1748],[43.6018,38.0847],[43.66,38.062],[43.6664,38.0313],[43.7038,37.9952],[43.6882,37.9737],[43.7059,37.9227],[43.7739,37.9107],[43.7924,37.9678],[43.8911,38.0979],[43.8869,38.1341],[43.9215,38.1911],[44.0081,38.2371],[44.1254,38.3394],[44.2308,38.3273],[44.2953,38.3401],[44.3296,38.3668],[44.3646,38.3712],[44.3815,38.3578],[44.4533,38.3795],[44.4527,38.3657],[44.51,38.3395],[44.4996,38.3097],[44.3978,38.2417],[44.4093,38.2131],[44.3884,38.1437],[44.3539,38.1304],[44.3641,38.1016],[44.3287,38.0938],[44.3049,38.0368],[44.2439,37.9693],[44.2253,37.8933],[44.2613,37.8717],[44.3257,37.8802],[44.3868,37.8648],[44.4083,37.8507],[44.395,37.8277],[44.4267,37.8011],[44.4515,37.8043],[44.4546,37.7696],[44.5611,37.7827],[44.6186,37.7311],[44.6249,37.6972],[44.576,37.6648],[44.5703,37.6449],[44.5868,37.6276],[44.577,37.5883],[44.6193,37.5481],[44.5854,37.5023],[44.5863,37.4443],[44.6314,37.4308],[44.659,37.3856],[44.7203,37.3746],[44.7396,37.3393],[44.8075,37.2935],[44.8101,37.2677],[44.763,37.2283],[44.7854,37.1449],[44.7582,37.1359],[44.734,37.1648],[44.6692,37.1681],[44.6424,37.1919],[44.6225,37.1896],[44.4808,37.0757],[44.3499,37.0481],[44.3668,37.0207],[44.3307,36.9976],[44.3109,36.9612],[44.2294,37.0193],[44.2325,37.0448],[44.1896,37.0924],[44.2243,37.1586],[44.2763,37.1696],[44.267,37.2391],[44.23,37.2762],[44.1262,37.3234],[44.0712,37.3092],[44.0155,37.3234],[43.9518,37.29],[43.9438,37.2497],[43.9169,37.2271],[43.8477,37.2193],[43.828,37.1915],[43.7962,37.2296],[43.6316,37.2195],[43.5677,37.2549],[43.4965,37.2417],[43.3986,37.2852],[43.3584,37.3247],[43.3271,37.3259],[43.2985,37.3037],[43.2366,37.3457],[43.1502,37.3691],[43.0287,37.3526],[42.9566,37.3084],[42.8316,37.3454],[42.8268,37.3682],[42.7899,37.3788],[42.723,37.314],[42.6875,37.3089],[42.7051,37.2882],[42.6832,37.2677],[42.6553,37.2686],[42.649,37.2323],[42.574,37.1494],[42.5007,37.1288],[42.454,37.1354],[42.3624,37.1111],[42.3117,37.1804],[42.3332,37.234],[42.2827,37.2849],[42.1997,37.2772],[42.2121,37.3166],[42.1122,37.247],[42.084,37.208],[42.0329,37.1861],[41.7654,37.1241],[41.645,37.1155],[41.512,37.0769],[41.2982,37.0806],[41.2135,37.0593],[41.1618,37.094],[40.9143,37.1308],[40.856,37.1248],[40.8341,37.1067],[40.7633,37.1266],[40.7461,37.1084],[40.6887,37.0998],[40.524,37.0277],[40.407,37.0131],[40.3545,36.9614],[40.1751,36.8744],[40.0644,36.8553],[40.0263,36.8244],[39.8247,36.7565],[39.7102,36.748],[39.4821,36.6975],[39.209,36.6671],[39.0247,36.7082],[38.8998,36.696],[38.7406,36.7036],[38.5488,36.843],[38.3953,36.8983],[38.2409,36.9209],[38.2086,36.9048],[38.1667,36.9098],[38.0365,36.8596],[38.0175,36.8252],[37.9317,36.8123],[37.7778,36.7447],[37.7012,36.7544],[37.6472,36.74],[37.4993,36.6756],[37.4699,36.6312],[37.288,36.6689],[37.2148,36.6736],[37.1564,36.6571],[37.1368,36.6755],[37.1046,36.6697],[37.0792,36.636],[37.0182,36.6662],[37.0164,36.6957],[37.0438,36.722],[37.0629,36.71],[37.1043,36.7402],[37.091,36.7837],[37.1247,36.7855],[37.1211,36.8115],[37.151,36.8452],[37.0931,36.8673],[37.0869,36.9118],[37.141,36.934],[37.1354,36.9902],[37.1881,36.9911],[37.2292,37.1163],[37.1712,37.1419],[37.1382,37.138],[37.1269,37.155],[37.0652,37.1398],[37.0757,37.1814],[37.1104,37.1838],[37.1107,37.2084],[37.1428,37.2486],[37.2056,37.274],[37.18,37.3294],[37.1967,37.3528],[37.2298,37.356],[37.2772,37.4341],[37.318,37.4439],[37.3739,37.502],[37.4303,37.5089],[37.4503,37.5346],[37.4948,37.5463],[37.5267,37.595],[37.5552,37.5906],[37.5883,37.6408],[37.5892,37.6577],[37.5746,37.6606],[37.583,37.6808],[37.6415,37.6975],[37.6295,37.7183],[37.6533,37.7383],[37.6586,37.7775],[37.7932,37.8286],[37.7714,37.8439],[37.5881,37.8075],[37.564,37.781],[37.5126,37.7823],[37.4821,37.7494],[37.439,37.7504],[37.4011,37.7689],[37.398,37.813],[37.3737,37.8241],[37.2451,37.8201],[37.1857,37.8482],[37.1067,37.938],[37.1995,37.9654],[37.2473,37.9588],[37.2835,37.9757],[37.2765,37.9936],[37.3571,37.9929],[37.4048,38.0223],[37.584,38.0397],[37.6878,38.0858],[37.7347,38.1305],[37.7274,38.1647],[37.7753,38.1901],[37.7519,38.1947],[37.7622,38.2155],[37.745,38.2289],[37.7011,38.2297],[37.6493,38.2637],[37.6156,38.2659],[37.5994,38.2944],[37.6371,38.3247],[37.6319,38.3432],[37.5569,38.3571],[37.5413,38.3867],[37.5184,38.3688],[37.4731,38.3879],[37.4754,38.4072],[37.4245,38.4189],[37.4098,38.4595],[37.3726,38.4877],[37.2843,38.5136],[37.3166,38.5587],[37.3026,38.5809],[37.2259,38.5719],[37.1242,38.6074],[37.1079,38.6186],[37.1189,38.6363],[37.0855,38.6695],[37.0501,38.6771],[36.9173,38.6437],[36.849,38.6994],[36.8052,38.7099],[36.8016,38.7706],[36.7794,38.7801],[36.8495,38.8255],[36.8567,38.91],[36.8973,38.9611],[36.879,38.9982],[36.9086,39.0202],[36.8849,39.0274],[36.9094,39.0552],[36.8946,39.0848],[36.8626,39.0867],[36.867,39.1164],[36.7945,39.1902],[36.8405,39.2146],[36.8512,39.2456],[36.9107,39.2797],[36.9816,39.2886],[37.0164,39.3088],[37.1429,39.3221],[37.2505,39.3855],[37.3329,39.3893],[37.4055,39.4269],[37.3991,39.4427],[37.3787,39.4436],[37.3838,39.4736],[37.3616,39.4871],[37.3631,39.5065],[37.4998,39.5338],[37.5324,39.5584],[37.607,39.5707],[37.6226,39.5941],[37.7235,39.6182],[37.8127,39.5777],[37.8609,39.5958],[37.9227,39.595],[37.8981,39.641],[37.8991,39.6732],[37.9386,39.6737],[37.9851,39.7088],[38.1362,39.703],[38.1781,39.768],[38.2141,39.778],[38.2677,39.7645],[38.2922,39.7958],[38.3513,39.7841],[38.3669,39.8304],[38.4152,39.8583],[38.51,39.868],[38.7916,39.8229],[38.905,39.8669],[38.9879,39.8433],[39.0073,39.867],[39.0607,39.8838],[39.071,39.9127],[39.2051,39.9367],[39.3516,39.9053],[39.3667,39.8851],[39.4369,39.8601],[39.5166,39.8932],[39.5725,39.8886],[39.591,39.8619],[39.6235,39.8516],[39.6309,39.8752],[39.6499,39.8703],[39.6718,39.8922],[39.7752,39.9252],[39.8378,39.9124],[39.8944,39.9332],[39.907,39.9473],[39.8905,39.9688],[39.9376,40.0039],[39.9377,40.0287],[39.9581,40.0453],[40.1037,40.0534],[40.151,40.0256],[40.2517,40.0451],[40.292,40.0284],[40.3467,40.041],[40.3942,39.999],[40.4154,39.9978],[40.5557,40.035],[40.5821,40.0273],[40.6537,40.057],[40.6906,40.0451],[40.7628,40.0658],[40.7694,40.0854],[40.812,40.0754],[40.8746,40.1292],[40.8783,40.1476],[40.8492,40.1668],[40.9058,40.2042],[40.9175,40.2559],[40.9677,40.2728],[41.0203,40.2656],[41.0747,40.286],[41.0879,40.3145],[41.1485,40.3261]]]}},{"type":"Feature","properties":{"no":"22","ad":"Doğu Karadeniz Havzası"},"geometry":{"type":"Polygon","coordinates":[[[41.6232,41.4935],[41.5873,41.4411],[41.5504,41.4293],[41.5428,41.3767],[41.487,41.3492],[41.4914,41.3134],[41.4733,41.2724],[41.4992,41.2417],[41.4544,41.187],[41.4519,41.1217],[41.4117,41.0905],[41.3661,41.0835],[41.3232,41.0178],[41.2235,40.9523],[41.2047,40.8788],[41.1496,40.8266],[41.0893,40.8105],[41.0882,40.7925],[41.0378,40.7618],[40.9749,40.7555],[40.977,40.7396],[40.8704,40.6927],[40.8753,40.6792],[40.8414,40.6593],[40.7803,40.6453],[40.7674,40.602],[40.6794,40.5929],[40.6572,40.5659],[40.5546,40.5494],[40.5139,40.5186],[40.3224,40.5192],[40.0992,40.4917],[39.9982,40.5037],[39.9672,40.4786],[39.9211,40.481],[39.9271,40.4402],[39.8647,40.4303],[39.8288,40.3546],[39.8434,40.3391],[39.8084,40.3049],[39.7005,40.2809],[39.6372,40.3022],[39.6315,40.3214],[39.5738,40.2985],[39.5416,40.2769],[39.5408,40.2577],[39.4969,40.2396],[39.4353,40.2787],[39.3582,40.2879],[39.352,40.3054],[39.2907,40.2992],[39.251,40.2639],[39.2289,40.2674],[39.1658,40.2972],[39.1204,40.3531],[39.0802,40.3635],[39.0608,40.388],[39.0236,40.392],[39.005,40.4437],[38.7882,40.4956],[38.7038,40.4725],[38.6688,40.4855],[38.5714,40.469],[38.5081,40.4988],[38.4577,40.4747],[38.4333,40.4789],[38.4054,40.4467],[38.1945,40.4905],[38.1589,40.4002],[38.1295,40.3919],[38.1103,40.3601],[38.0374,40.3369],[38.0035,40.3488],[37.9066,40.3291],[37.7772,40.3262],[37.5849,40.3605],[37.5657,40.3771],[37.5873,40.3925],[37.5694,40.4142],[37.582,40.4288],[37.5695,40.4529],[37.6081,40.4934],[37.6009,40.5153],[37.5776,40.5292],[37.5485,40.5111],[37.5446,40.5219],[37.4366,40.5212],[37.4318,40.5329],[37.3889,40.5265],[37.3422,40.5459],[37.3144,40.5688],[37.3364,40.6088],[37.3079,40.6688],[37.2733,40.6626],[37.2179,40.6849],[37.2197,40.7217],[37.2015,40.7433],[37.1576,40.733],[37.1261,40.7679],[37.0302,40.7716],[37.022,40.8045],[36.9906,40.8211],[36.9951,40.8441],[36.8984,40.8704],[36.9309,40.9455],[36.924,40.969],[36.9823,41.0044],[37.0185,41.0796],[37.1304,41.108],[37.1595,41.1463],[37.2934,41.1438],[37.2983,41.1217],[37.3917,41.1044],[37.5423,41.0196],[37.607,41.0437],[37.6814,41.1316],[37.7037,41.1117],[37.7861,41.1132],[37.776,41.0623],[37.8075,41.0255],[37.8692,41.0102],[37.8841,40.9825],[38.0015,40.9765],[38.192,40.9352],[38.286,40.9416],[38.3634,40.9061],[38.3927,40.9216],[38.4318,40.9073],[38.5401,40.9178],[38.6287,40.9701],[38.6767,40.947],[38.7122,40.9485],[38.8144,41.0071],[38.874,41.0108],[38.9326,41.0416],[39.051,41.0359],[39.1679,41.0785],[39.2835,41.0491],[39.4242,41.1067],[39.4955,41.0891],[39.5782,41.0217],[39.6517,40.9943],[39.7401,41.0102],[39.828,40.9854],[39.8672,40.9554],[40.0388,40.9581],[40.0942,40.9155],[40.1818,40.9122],[40.2891,40.9546],[40.3842,41.0247],[40.5083,41.0399],[40.542,41.0267],[40.7227,41.0858],[40.7784,41.1425],[40.8384,41.1721],[40.8926,41.1822],[40.9043,41.1384],[40.8965,41.182],[40.9626,41.1875],[40.9868,41.1598],[41.0113,41.1495],[40.9678,41.1888],[41.067,41.2161],[41.2756,41.344],[41.4078,41.3823],[41.4774,41.4583],[41.5275,41.4827],[41.5499,41.518],[41.6232,41.4935]]]}},{"type":"Feature","properties":{"no":"23","ad":"Çoruh Havzası"},"geometry":{"type":"Polygon","coordinates":[[[42.5187,41.4372],[42.5198,41.3974],[42.565,41.3759],[42.5585,41.3427],[42.6066,41.2987],[42.6031,41.2825],[42.5681,41.2661],[42.5008,41.1936],[42.4292,41.197],[42.4121,41.1786],[42.42,41.152],[42.3878,41.1534],[42.3463,41.1009],[42.2758,41.0918],[42.3072,41.0418],[42.2561,40.9801],[42.3513,40.9865],[42.3566,40.9629],[42.4153,40.9563],[42.3319,40.884],[42.3209,40.8607],[42.3302,40.8124],[42.3779,40.8056],[42.4127,40.773],[42.4869,40.79],[42.5605,40.7736],[42.613,40.6875],[42.6364,40.6781],[42.6149,40.622],[42.5391,40.5782],[42.533,40.5482],[42.4915,40.5046],[42.4879,40.4617],[42.5191,40.4075],[42.4597,40.3504],[42.3963,40.3546],[42.4,40.3793],[42.3653,40.3933],[42.2659,40.3439],[42.1498,40.3422],[42.0218,40.2226],[41.947,40.1969],[41.9191,40.1582],[41.8258,40.147],[41.7893,40.1807],[41.7646,40.1573],[41.6876,40.1608],[41.6221,40.1919],[41.573,40.1826],[41.4281,40.2266],[41.3667,40.1788],[41.285,40.1771],[41.2515,40.1892],[41.2579,40.2382],[41.2099,40.2687],[41.1984,40.3132],[41.1409,40.334],[41.0203,40.2656],[40.9298,40.2642],[40.9,40.1968],[40.8492,40.1668],[40.8785,40.146],[40.8389,40.0879],[40.812,40.0754],[40.7694,40.0854],[40.7628,40.0658],[40.6906,40.0451],[40.6537,40.057],[40.5821,40.0273],[40.5557,40.035],[40.4037,39.9975],[40.3467,40.041],[40.292,40.0284],[40.2517,40.0451],[40.151,40.0256],[40.1037,40.0534],[39.9581,40.0453],[39.9377,40.0287],[39.9376,40.0039],[39.8905,39.9688],[39.9066,39.9435],[39.8378,39.9124],[39.7917,39.9151],[39.7554,39.9781],[39.6748,40.0141],[39.6805,40.0777],[39.6985,40.0819],[39.6925,40.1096],[39.7497,40.1549],[39.8055,40.1736],[39.7801,40.2082],[39.7939,40.2638],[39.7766,40.2966],[39.8405,40.3338],[39.8288,40.3546],[39.8647,40.4303],[39.9271,40.4402],[39.9211,40.481],[39.9672,40.4786],[39.9982,40.5037],[40.0992,40.4917],[40.3224,40.5192],[40.5139,40.5186],[40.5546,40.5494],[40.6572,40.5659],[40.6794,40.5929],[40.7674,40.602],[40.7803,40.6453],[40.8414,40.6593],[40.8753,40.6792],[40.8704,40.6927],[40.977,40.7396],[40.9749,40.7555],[41.0378,40.7618],[41.0882,40.7925],[41.0893,40.8105],[41.1496,40.8266],[41.2047,40.8788],[41.2235,40.9523],[41.3232,41.0178],[41.3661,41.0835],[41.4117,41.0905],[41.4519,41.1217],[41.4544,41.187],[41.4992,41.2417],[41.4733,41.2724],[41.4914,41.3134],[41.487,41.3492],[41.5428,41.3767],[41.5504,41.4293],[41.5873,41.4411],[41.6168,41.491],[41.6639,41.4812],[41.7151,41.4932],[41.715,41.4718],[41.7826,41.4581],[41.8246,41.4321],[41.9563,41.5185],[42.0423,41.4933],[42.1795,41.5117],[42.2033,41.493],[42.2787,41.4909],[42.4512,41.4372],[42.5187,41.4372]]]}},{"type":"Feature","properties":{"no":"24","ad":"Aras Havzası"},"geometry":{"type":"Polygon","coordinates":[[[44.0335,39.3695],[43.8522,39.3552],[43.7968,39.3905],[43.7419,39.5318],[43.6901,39.5673],[43.6564,39.6922],[43.6402,39.7042],[43.5667,39.6915],[43.5197,39.7206],[43.497,39.7752],[43.4689,39.7756],[43.4242,39.8097],[43.4199,39.8747],[43.4322,39.8894],[43.4069,39.9219],[43.3342,39.9762],[43.1502,39.9843],[43.1186,40.0068],[43.0366,40.008],[42.9671,39.9732],[42.8738,39.9698],[42.8276,39.9445],[42.669,39.9368],[42.6232,39.9075],[42.5169,39.8956],[42.4988,39.8615],[42.4339,39.8836],[42.39,39.8632],[42.1068,39.8217],[42.0923,39.7934],[42.1432,39.7464],[42.2232,39.7396],[42.2332,39.6876],[42.1524,39.6609],[42.1294,39.6439],[42.1207,39.6052],[42.0814,39.58],[41.9578,39.5644],[41.8456,39.525],[41.837,39.5031],[41.7746,39.5073],[41.7086,39.4818],[41.6611,39.5064],[41.6131,39.5088],[41.5337,39.4604],[41.4179,39.4424],[41.375,39.3557],[41.3356,39.3299],[41.3103,39.3333],[41.2304,39.4517],[41.2298,39.578],[41.1627,39.6169],[41.1849,39.6647],[41.2257,39.6764],[41.2664,39.7119],[41.2635,39.7354],[41.22,39.7747],[41.2937,39.8055],[41.2972,39.8391],[41.3348,39.8604],[41.359,39.8996],[41.3469,39.9274],[41.3795,39.9549],[41.4025,40.031],[41.4551,40.0757],[41.4787,40.0653],[41.4978,40.0808],[41.5512,40.1349],[41.573,40.1826],[41.6038,40.1948],[41.6876,40.1608],[41.757,40.1569],[41.7893,40.1807],[41.823,40.1472],[41.9113,40.1556],[41.947,40.1969],[42.0218,40.2226],[42.1463,40.3409],[42.2659,40.3439],[42.3653,40.3933],[42.4,40.3793],[42.3963,40.3546],[42.4567,40.3494],[42.5155,40.3954],[42.4879,40.4617],[42.4915,40.5046],[42.533,40.5482],[42.5391,40.5782],[42.6149,40.622],[42.6364,40.6781],[42.613,40.6875],[42.5605,40.7736],[42.4869,40.79],[42.4127,40.773],[42.3779,40.8056],[42.3302,40.8124],[42.3209,40.8607],[42.3319,40.884],[42.4153,40.9563],[42.3566,40.9629],[42.3513,40.9865],[42.2876,40.9737],[42.2565,40.983],[42.3072,41.0418],[42.2758,41.0918],[42.3463,41.1009],[42.3878,41.1534],[42.42,41.152],[42.4121,41.1786],[42.4292,41.197],[42.5008,41.1936],[42.5681,41.2661],[42.6031,41.2825],[42.6066,41.2987],[42.5585,41.3427],[42.565,41.3759],[42.5198,41.3974],[42.5288,41.4212],[42.5156,41.4703],[42.5693,41.5073],[42.5752,41.5605],[42.5989,41.5799],[42.6929,41.5979],[42.7747,41.5745],[42.8253,41.5844],[42.83,41.564],[42.7972,41.5164],[42.8023,41.4927],[42.8448,41.4722],[42.8734,41.4992],[42.8934,41.4985],[42.9655,41.4433],[43.0188,41.3689],[43.05,41.3771],[43.1003,41.356],[43.1331,41.3207],[43.2185,41.3052],[43.1403,41.2526],[43.1971,41.2541],[43.2385,41.1929],[43.2384,41.1705],[43.364,41.2054],[43.4488,41.1771],[43.4736,41.1335],[43.4524,41.0944],[43.472,41.0692],[43.4734,41.029],[43.5955,40.9841],[43.6771,40.9347],[43.683,40.8432],[43.7283,40.7982],[43.7531,40.6991],[43.7059,40.6132],[43.6541,40.5608],[43.6572,40.5283],[43.6299,40.5391],[43.6333,40.5266],[43.5763,40.4925],[43.5573,40.4966],[43.545,40.4761],[43.608,40.4407],[43.6189,40.3968],[43.6009,40.3508],[43.6074,40.3232],[43.6324,40.2853],[43.6866,40.2612],[43.6785,40.2346],[43.6523,40.2254],[43.7,40.1958],[43.7101,40.17],[43.6604,40.1459],[43.6676,40.1027],[43.7193,40.0752],[43.7699,40.085],[43.8236,40.0457],[43.9252,40.0339],[43.9355,40.0205],[43.988,40.0195],[43.9939,40.034],[44.04,40.0391],[44.1517,40.0296],[44.1928,40.0473],[44.3372,40.0395],[44.3674,40.0082],[44.4919,39.9619],[44.5026,39.9311],[44.5569,39.9065],[44.5633,39.8814],[44.5995,39.855],[44.5928,39.8237],[44.6195,39.8303],[44.6573,39.7871],[44.7025,39.7868],[44.6949,39.7748],[44.72,39.7683],[44.7206,39.7398],[44.7384,39.7372],[44.7507,39.7094],[44.7744,39.7151],[44.7978,39.6876],[44.7915,39.6657],[44.8264,39.6515],[44.8055,39.6223],[44.801,39.6515],[44.7162,39.7064],[44.6693,39.7133],[44.6119,39.7783],[44.4745,39.6824],[44.4879,39.641],[44.4805,39.6092],[44.4236,39.5603],[44.4404,39.5015],[44.4164,39.471],[44.4337,39.4403],[44.4238,39.4134],[44.2916,39.373],[44.2299,39.4184],[44.1384,39.3908],[44.1337,39.4041],[44.07,39.4091],[44.0335,39.3695]]]}},{"type":"Feature","properties":{"no":"25","ad":"Van Gölü Havzası"},"geometry":{"type":"Polygon","coordinates":[[[44.0335,39.3695],[44.0775,39.3285],[44.0806,39.2957],[44.1049,39.2845],[44.0881,39.2517],[44.1021,39.2363],[44.0993,39.2036],[44.1833,39.1658],[44.2258,39.099],[44.1959,39.0761],[44.2109,39.0216],[44.1732,38.9908],[44.189,38.9764],[44.1913,38.9296],[44.2174,38.9127],[44.214,38.8845],[44.237,38.8743],[44.2477,38.8479],[44.2934,38.8438],[44.3089,38.8092],[44.2743,38.7275],[44.2536,38.717],[44.2805,38.6732],[44.2724,38.644],[44.3218,38.6204],[44.3111,38.5232],[44.3232,38.4838],[44.3056,38.4415],[44.3296,38.3668],[44.2953,38.3401],[44.2308,38.3273],[44.1254,38.3394],[44.0081,38.2371],[43.9215,38.1911],[43.8869,38.1341],[43.8911,38.0979],[43.7803,37.9469],[43.7796,37.9106],[43.7059,37.9227],[43.6882,37.9737],[43.7038,37.9952],[43.6664,38.0313],[43.66,38.062],[43.6018,38.0847],[43.6082,38.1748],[43.5477,38.1941],[43.5307,38.2149],[43.2785,38.1905],[43.2197,38.1605],[43.161,38.1722],[43.0993,38.2291],[43.032,38.2113],[42.9803,38.2251],[42.9368,38.1937],[42.9035,38.1968],[42.8119,38.2273],[42.8491,38.297],[42.7885,38.333],[42.7808,38.394],[42.7576,38.423],[42.6486,38.4372],[42.636,38.4282],[42.638,38.3951],[42.6139,38.3817],[42.5552,38.3936],[42.5278,38.4346],[42.5088,38.4388],[42.4738,38.4339],[42.4393,38.4063],[42.427,38.4407],[42.352,38.4794],[42.3163,38.446],[42.2281,38.4478],[42.2236,38.4675],[42.2584,38.4913],[42.2385,38.501],[42.2268,38.5366],[42.2305,38.5899],[42.2006,38.6038],[42.1903,38.6282],[42.2146,38.6661],[42.2162,38.7018],[42.1482,38.723],[42.1232,38.7541],[42.1217,38.7823],[42.1521,38.8171],[42.1493,38.846],[42.1762,38.8759],[42.2667,38.8944],[42.3172,38.9319],[42.346,38.9358],[42.3742,38.9161],[42.4395,38.958],[42.4851,38.9335],[42.5592,38.9332],[42.5941,38.9079],[42.6462,38.9396],[42.8447,38.937],[42.9171,38.9924],[43.0472,39.044],[43.0847,39.0387],[43.1453,39.0833],[43.114,39.1179],[43.1504,39.1539],[43.1507,39.192],[43.1788,39.241],[43.1612,39.3401],[43.2416,39.3405],[43.2855,39.3744],[43.4304,39.383],[43.4529,39.3612],[43.4521,39.3372],[43.49,39.3284],[43.5551,39.2769],[43.7451,39.3701],[43.866,39.3549],[44.0335,39.3695]]]}}]}